{
"type": "FeatureCollection",
"name": "output",
"crs": { "type": "name", "properties": { "name": "urn:ogc:def:crs:OGC:1.3:CRS84" } },
"features": [
{ "type": "Feature", "properties": { "FeatureID": "1", "OBJECTID_1": 0, "Id": 0, "gridcode": 0, "Shape_Leng": 0.0, "Shape_Area": 0.0 }, "geometry": { "type": "Polygon", "coordinates": [ [ [ 73.110947019997283, 22.514005839187451 ], [ 73.110576115206143, 22.514001497400432 ], [ 73.110531764522918, 22.517262783802789 ], [ 73.112980246886622, 22.51837248991006 ], [ 73.123221041637493, 22.523013843528744 ], [ 73.131003903409976, 22.526915076507631 ], [ 73.133768093611238, 22.528934307647702 ], [ 73.137238034502033, 22.532992374113231 ], [ 73.140080641446716, 22.538305108471807 ], [ 73.142550768860431, 22.543970718174972 ], [ 73.145628626034892, 22.550890995771095 ], [ 73.147981128333811, 22.556811459890053 ], [ 73.149804317615491, 22.561790923089514 ], [ 73.151529485968112, 22.567770199766052 ], [ 73.152098007356926, 22.572769267151255 ], [ 73.152039194799613, 22.580454107994491 ], [ 73.152490091073531, 22.584335736787725 ], [ 73.153506386325574, 22.587017288632566 ], [ 73.155019031044915, 22.589472033473651 ], [ 73.157371533343834, 22.591824535772659 ], [ 73.160488598889955, 22.59480437201788 ], [ 73.16309595560449, 22.596451123627265 ], [ 73.166801146725433, 22.598215500351365 ], [ 73.173152902932571, 22.600411169163731 ], [ 73.181425869350448, 22.603391005409129 ], [ 73.187267916726086, 22.606802133742438 ], [ 73.189816460883307, 22.608409676980251 ], [ 73.192913922243591, 22.610507324863288 ], [ 73.19587415430307, 22.613114681578089 ], [ 73.197636189328165, 22.615763317615961 ], [ 73.19895201147753, 22.617251164786939 ], [ 73.201422138891431, 22.618897916396147 ], [ 73.205127330012289, 22.620446647076381 ], [ 73.20902856299135, 22.621995377756527 ], [ 73.212715819929798, 22.624481679085701 ], [ 73.213599586170432, 22.625408926242269 ], [ 73.214811797809588, 22.626680778168623 ], [ 73.218595405673753, 22.629444968369889 ], [ 73.221091516684439, 22.631068149484562 ], [ 73.22318645588966, 22.633224452071627 ], [ 73.230199153485444, 22.640442560325752 ], [ 73.23416112921835, 22.644520587268818 ], [ 73.238826925444528, 22.648010132345537 ], [ 73.241120615186134, 22.649480446282539 ], [ 73.246354932801211, 22.653126824845899 ], [ 73.249728920392045, 22.654704349173866 ], [ 73.253222830463173, 22.656666682227605 ], [ 73.255882567111868, 22.657949454558629 ], [ 73.259156466144631, 22.659968685698612 ], [ 73.262959678194463, 22.663301397288688 ], [ 73.265233763750231, 22.666928171666218 ], [ 73.266566848386162, 22.672221301838785 ], [ 73.266664869315306, 22.676475410162706 ], [ 73.265743472581647, 22.68051387244267 ], [ 73.262998886566123, 22.686767607720565 ], [ 73.261567781001048, 22.689825860709195 ], [ 73.259274091259442, 22.693511447644216 ], [ 73.257098663550892, 22.696115806207601 ], [ 73.263605552308121, 22.696182855343 ], [ 73.266468827457004, 22.691805883477606 ], [ 73.267233390704206, 22.689453381178598 ], [ 73.268821329756108, 22.684552334722458 ], [ 73.27001718509139, 22.680572685000161 ], [ 73.270801352524245, 22.676377389233643 ], [ 73.270742539966761, 22.672240906024616 ], [ 73.270272039507006, 22.667202630267841 ], [ 73.268272412552946, 22.663360209846179 ], [ 73.265978722811425, 22.660537207087511 ], [ 73.264331971202225, 22.658890455478215 ], [ 73.263155720052765, 22.658204308974334 ], [ 73.255941379669366, 22.653636533677219 ], [ 73.251059937399049, 22.650774322546891 ], [ 73.249021102073243, 22.649950946742287 ], [ 73.245433536067367, 22.647970923973876 ], [ 73.243767180272329, 22.64650061003714 ], [ 73.242277262149585, 22.645657630046617 ], [ 73.239395446833427, 22.643011064960422 ], [ 73.235435401296968, 22.639011811052207 ], [ 73.234415983633966, 22.637619913858526 ], [ 73.231651793432789, 22.634091160410147 ], [ 73.229279686948047, 22.631699449739568 ], [ 73.224888349323308, 22.627014049327649 ], [ 73.224300223748671, 22.625641756319887 ], [ 73.223339618643081, 22.623446087507521 ], [ 73.221300783317446, 22.621505273110859 ], [ 73.219732448451381, 22.620662293120336 ], [ 73.21753677963919, 22.620015354988116 ], [ 73.212870983412927, 22.618897916396147 ], [ 73.208793312761301, 22.617819686175928 ], [ 73.204950892339809, 22.6167218517697 ], [ 73.200559554715085, 22.613781223896051 ], [ 73.198677552875907, 22.612114868100925 ], [ 73.198265864973649, 22.611389513225472 ], [ 73.195168403613366, 22.608115614192709 ], [ 73.192619859456144, 22.605704299336299 ], [ 73.189306752051891, 22.603763484939726 ], [ 73.183503913047829, 22.600528794278535 ], [ 73.181719932137725, 22.599646605916618 ], [ 73.177916720087723, 22.59858797988214 ], [ 73.173544986648992, 22.597137270130968 ], [ 73.168545919263792, 22.59486318457537 ], [ 73.164291810939787, 22.592589099019772 ], [ 73.16252743421559, 22.59121680601201 ], [ 73.160135723545011, 22.589177970686286 ], [ 73.158743826351426, 22.587433198147927 ], [ 73.158194909148349, 22.586452988856681 ], [ 73.157724408688608, 22.584923862362277 ], [ 73.157234304043115, 22.582963443779963 ], [ 73.156783407768927, 22.580669754038446 ], [ 73.156018844521725, 22.576533270829419 ], [ 73.155763990106109, 22.57369066388501 ], [ 73.155293489646368, 22.569534576490152 ], [ 73.154646551514233, 22.565907802112623 ], [ 73.154038821753588, 22.563182820283018 ], [ 73.153097820834091, 22.560614671940055 ], [ 73.152646924559988, 22.55910514963157 ], [ 73.151255027366403, 22.554556978520107 ], [ 73.149627879943111, 22.549949994851421 ], [ 73.148373212050245, 22.546754512561979 ], [ 73.147079335785804, 22.544088343289953 ], [ 73.142069290056583, 22.533923180856203 ], [ 73.139242212136466, 22.528975674048052 ], [ 73.137906041017388, 22.52669904402595 ], [ 73.137546302639095, 22.526277636211351 ], [ 73.136261522717007, 22.525347455547656 ], [ 73.135326202933598, 22.524900352134964 ], [ 73.134534778501475, 22.524540613756677 ], [ 73.132355791753469, 22.523343198869256 ], [ 73.131636314997067, 22.523050269046902 ], [ 73.130757525530271, 22.522664835070078 ], [ 73.129565249762379, 22.522176618699902 ], [ 73.128999946596679, 22.521940219194153 ], [ 73.128722434133536, 22.521801462962493 ], [ 73.127694610195761, 22.521308107472432 ], [ 73.126450943231234, 22.520645161032554 ], [ 73.125387145455591, 22.520126109943956 ], [ 73.124713920776202, 22.519750954206724 ], [ 73.124138339371086, 22.519468302623785 ], [ 73.123871105147359, 22.51929357255435 ], [ 73.122606881703916, 22.518507287241935 ], [ 73.121949074383664, 22.518198940060724 ], [ 73.12064887710244, 22.517592523937363 ], [ 73.119102002076147, 22.516970690455057 ], [ 73.117596240007344, 22.516420804648302 ], [ 73.11534047069982, 22.51572996717805 ], [ 73.114816329827065, 22.515572093421316 ], [ 73.114607936467962, 22.515496314017941 ], [ 73.113995386291521, 22.515247925973764 ], [ 73.113153392921561, 22.514896393742085 ], [ 73.111997757021697, 22.514422772471438 ], [ 73.111094719132424, 22.514062820305853 ], [ 73.110947019997283, 22.514005839187451 ] ] ] } }
]
}
