{
"type": "FeatureCollection",
"name": "output",
"crs": { "type": "name", "properties": { "name": "urn:ogc:def:crs:OGC:1.3:CRS84" } },
"features": [
{ "type": "Feature", "properties": { "FeatureID": "1", "OBJECTID_1": 35, "baratmlatp": "State Highway", "RD_cat": "SH", "RD_NAME": "SH158", "Shape_Leng": 12725.552133499999, "Shape_Le_1": 21577.5925847 }, "geometry": { "type": "LineString", "coordinates": [ [ 73.204428060612969, 22.515075599599733 ], [ 73.204491257920878, 22.515280843915363 ], [ 73.204740151940655, 22.51608279743073 ], [ 73.20495203082109, 22.516774760413433 ], [ 73.20521099296829, 22.517638722091927 ], [ 73.205322283445881, 22.51800249327183 ], [ 73.205469955542952, 22.518374171895186 ], [ 73.205570544458752, 22.518609435806606 ], [ 73.20576530050316, 22.518979135720912 ], [ 73.205938655385765, 22.51927963922698 ], [ 73.206189057670187, 22.519710624477685 ], [ 73.2064844032043, 22.52022464123263 ], [ 73.206852515907002, 22.520853320923909 ], [ 73.207550215747801, 22.522019731203674 ], [ 73.207946698278533, 22.522689642573759 ], [ 73.208213673131041, 22.523144615907626 ], [ 73.208633149859438, 22.523830613813637 ], [ 73.209035504668279, 22.52447113869686 ], [ 73.209382214205121, 22.525022699357798 ], [ 73.20965887629022, 22.525436764859784 ], [ 73.209833793776156, 22.525714617502928 ], [ 73.210343157155165, 22.526479678636747 ], [ 73.210736951598577, 22.527076699738192 ], [ 73.210940269312445, 22.527385093378058 ], [ 73.211242034994754, 22.527839775543306 ], [ 73.211693615013715, 22.52850993392131 ], [ 73.212168735360365, 22.52929672522222 ], [ 73.21233138969545, 22.529609067205985 ], [ 73.21246836163148, 22.529919432272933 ], [ 73.212716622986179, 22.530504577959878 ], [ 73.212928501684587, 22.531020530348368 ], [ 73.213185323350459, 22.53166497589531 ], [ 73.213529893765426, 22.532564427019498 ], [ 73.213754613035022, 22.533133745344788 ], [ 73.214011435326853, 22.533788065080302 ], [ 73.214221173545837, 22.53431982071832 ], [ 73.214266944076826, 22.534442117043771 ], [ 73.21433508789562, 22.534700601323649 ], [ 73.214366706358248, 22.534829829770473 ], [ 73.214386587418275, 22.534935830628108 ], [ 73.214411649638194, 22.535195532710478 ], [ 73.214469435217211, 22.536029726349607 ], [ 73.214542201609717, 22.537235544115848 ], [ 73.214632089091324, 22.538552046950887 ], [ 73.214679173142159, 22.539583892675353 ], [ 73.214758360421456, 22.540338992026278 ], [ 73.214843967389456, 22.540732354229331 ], [ 73.214899612067057, 22.540937929626164 ], [ 73.214983080156998, 22.541129667860869 ], [ 73.215083667522435, 22.541339196258328 ], [ 73.215209939329029, 22.541566515009912 ], [ 73.215406836053759, 22.541861039199429 ], [ 73.215541668073271, 22.542046846676772 ], [ 73.215901219590776, 22.542513341357928 ], [ 73.216395601697684, 22.543137966229509 ], [ 73.217155368357297, 22.544124313208741 ], [ 73.217735100066079, 22.544868847647372 ], [ 73.218342835333786, 22.545578603817258 ], [ 73.218787208417154, 22.546026636956206 ], [ 73.219254045644178, 22.546471806614928 ], [ 73.219278089794457, 22.546494999498758 ], [ 73.219365839316879, 22.546589273446461 ], [ 73.219503749815004, 22.546772317064569 ], [ 73.219657015622559, 22.547023597974416 ] ] } },
{ "type": "Feature", "properties": { "FeatureID": "2", "OBJECTID_1": 64, "baratmlatp": "State Highway", "RD_cat": "SH", "RD_NAME": "SH150", "Shape_Leng": 9888.6974461200007, "Shape_Le_1": 19081.746024 }, "geometry": { "type": "LineString", "coordinates": [ [ 73.353254861435758, 22.541302614761868 ], [ 73.353078555245531, 22.541448157039152 ], [ 73.352633295950568, 22.541812088604281 ], [ 73.352045967150545, 22.542331347737406 ], [ 73.351618540139171, 22.542716573171976 ], [ 73.351499908965081, 22.542823851358619 ], [ 73.351381011919855, 22.542921820864564 ], [ 73.35043945067639, 22.54360098477612 ], [ 73.34989097329813, 22.543984504816766 ], [ 73.349233582854012, 22.544480479898017 ], [ 73.349138980888256, 22.544558247366531 ], [ 73.349002875072244, 22.544680603425778 ], [ 73.348621750318173, 22.545045894515464 ], [ 73.348245535094904, 22.545416689005847 ], [ 73.348141701868812, 22.545506813359161 ], [ 73.348075085189038, 22.545560592346366 ], [ 73.348009163968172, 22.54560299089021 ], [ 73.347922693106554, 22.545658016296674 ], [ 73.347838549073614, 22.545702976700056 ], [ 73.347725803209244, 22.545755400193926 ], [ 73.347545684018414, 22.545830477267227 ], [ 73.347389866092016, 22.54588135523634 ], [ 73.347254597750094, 22.54591960715263 ], [ 73.347120337181309, 22.545950710205592 ], [ 73.346975178647554, 22.545979663672817 ], [ 73.346708466415919, 22.546024751814279 ], [ 73.345845433316796, 22.546180970365562 ], [ 73.344933844963066, 22.546357891757324 ], [ 73.344415228796166, 22.54646916206698 ], [ 73.343473879456781, 22.546686979226045 ], [ 73.34237352359564, 22.546933201633873 ], [ 73.341200690968861, 22.547195310668155 ], [ 73.340585062868286, 22.547320389737159 ], [ 73.339946293962186, 22.547454039324613 ], [ 73.339269891812378, 22.547602789006614 ], [ 73.338252938506116, 22.547856525018133 ], [ 73.337694888885977, 22.548029015651089 ], [ 73.337283421471128, 22.548171046552714 ], [ 73.336680549893742, 22.548401613383007 ], [ 73.336114017159332, 22.548618524693893 ], [ 73.335202078049775, 22.548971975547904 ], [ 73.334878845313753, 22.549082959991953 ], [ 73.334760480710131, 22.54912156573296 ], [ 73.334637119511697, 22.549154818296866 ], [ 73.334477518854499, 22.549196014108521 ], [ 73.33420868750629, 22.549253987245457 ], [ 73.334040516678556, 22.549282968485773 ], [ 73.333887410225856, 22.549308168908613 ], [ 73.333582310321901, 22.549352833359535 ], [ 73.332720535213454, 22.549463625979861 ], [ 73.331647486851892, 22.549598844378664 ], [ 73.331272079123352, 22.549644558585875 ], [ 73.331109813580014, 22.549654747992705 ], [ 73.331018324313916, 22.549649422832662 ], [ 73.330941152233848, 22.549643198601295 ], [ 73.330843592417622, 22.549620541714663 ], [ 73.330775941914141, 22.54959711600976 ], [ 73.330663030888516, 22.549545182070293 ], [ 73.330449364718802, 22.549410611160585 ], [ 73.330390845739743, 22.549368315425049 ], [ 73.33035955229029, 22.549346031074553 ], [ 73.329050744308205, 22.548420204074322 ], [ 73.32777016743016, 22.5475352940317 ], [ 73.327642140287892, 22.547456985077471 ], [ 73.327567469603409, 22.547419606810298 ], [ 73.327354462533407, 22.547326708081894 ], [ 73.327093406282216, 22.547232398917451 ], [ 73.326898123667547, 22.547184881641321 ], [ 73.326771604525305, 22.547159615440563 ], [ 73.32663364046698, 22.547141710616366 ], [ 73.32638574585205, 22.547128494053663 ], [ 73.325647091098986, 22.547157165936135 ], [ 73.324240492123664, 22.547263206486289 ], [ 73.322858034004625, 22.547338947339799 ], [ 73.321523575986163, 22.547382891556666 ], [ 73.319886177957869, 22.547414861826784 ], [ 73.319606012025815, 22.547419171301421 ], [ 73.31937259612485, 22.547407260237161 ], [ 73.319165106466755, 22.547389292557227 ], [ 73.318965538090822, 22.547348686731095 ], [ 73.318818955614645, 22.547311396320872 ], [ 73.318651983440049, 22.54725767438925 ], [ 73.318413052263836, 22.547170831171453 ], [ 73.317862905240091, 22.546959616245722 ], [ 73.317028912710839, 22.546588129515985 ], [ 73.316443646418506, 22.546300365249746 ], [ 73.31591674678495, 22.546055536626014 ], [ 73.315780312951503, 22.545994154366799 ], [ 73.315599828299852, 22.545917199659101 ], [ 73.315479818949825, 22.545882669106422 ], [ 73.314745700135518, 22.545744999548141 ], [ 73.314111527323277, 22.545629837032649 ], [ 73.313777307470104, 22.545551191064746 ], [ 73.313491623969611, 22.54548056733983 ], [ 73.31309005492534, 22.545366297372475 ], [ 73.312426017045496, 22.545171088780904 ], [ 73.311848417927465, 22.545010305867848 ], [ 73.311645977592249, 22.544963238102163 ], [ 73.311503240034625, 22.544945631623492 ], [ 73.311383116011001, 22.544942104527163 ], [ 73.311196662495789, 22.544949384771776 ], [ 73.311004024293197, 22.544970338068399 ], [ 73.310640270662077, 22.545044104420235 ], [ 73.310168371235577, 22.545146803864306 ], [ 73.309981803357175, 22.545185088190394 ], [ 73.309773272994775, 22.545218110219189 ], [ 73.309604171690438, 22.545233156230228 ], [ 73.309480381093664, 22.545236738235001 ], [ 73.309336683285835, 22.545228928487621 ], [ 73.309243312059081, 22.545215963474167 ], [ 73.309151403620021, 22.545200644008183 ], [ 73.309002370674094, 22.545169971473182 ], [ 73.308852086356936, 22.545126706135498 ], [ 73.308759994558983, 22.545092297156494 ], [ 73.308613520813665, 22.545016236167815 ], [ 73.307721099956495, 22.544467982565795 ], [ 73.306624063866991, 22.543764148836132 ], [ 73.306177567305753, 22.543495496353277 ], [ 73.306051324155476, 22.543441428470349 ], [ 73.305928442013325, 22.543400434174448 ], [ 73.305782020816523, 22.543365346572312 ], [ 73.305553655590998, 22.543324335425158 ], [ 73.304354607203578, 22.543156077799864 ], [ 73.30247247677427, 22.542827017175505 ], [ 73.301392415949394, 22.542646858686908 ], [ 73.300979936772706, 22.542579768199804 ], [ 73.300644676245099, 22.542552110583298 ], [ 73.300155721855376, 22.542520819543036 ], [ 73.299818122208563, 22.542526521805542 ], [ 73.299250143714033, 22.542528977423782 ], [ 73.298608954337183, 22.54251388852667 ], [ 73.297702956218757, 22.54245121924415 ], [ 73.296601399741363, 22.542369833229227 ], [ 73.295976225958825, 22.54230364462736 ], [ 73.295242241980091, 22.542204433189962 ], [ 73.294423187388134, 22.542069049880624 ], [ 73.293617526231799, 22.541912068469831 ], [ 73.291750560601685, 22.541534586086449 ], [ 73.290462574544435, 22.541321014053047 ], [ 73.290106820065176, 22.541261165739751 ], [ 73.289864733588345, 22.54122393703873 ], [ 73.289585681893357, 22.541184778721753 ], [ 73.28940349852229, 22.541169294708869 ], [ 73.289196463341213, 22.541149704339457 ], [ 73.288835076534312, 22.541138388812371 ], [ 73.287671221601386, 22.541126453041798 ], [ 73.287224207579314, 22.54111909822937 ], [ 73.287057918319775, 22.541111118583 ], [ 73.28686351784647, 22.54109640290925 ], [ 73.286622572241413, 22.541074690631461 ], [ 73.285666607716806, 22.540968927074857 ], [ 73.284430167672539, 22.540825510843788 ], [ 73.283908674820253, 22.540785989339845 ], [ 73.283345947812407, 22.540749056936662 ], [ 73.282735490746475, 22.540730710146267 ], [ 73.282121076671515, 22.540721114153463 ], [ 73.281013312007914, 22.540699987559403 ], [ 73.279539169826478, 22.540616601547487 ], [ 73.278050753387973, 22.54054746919779 ], [ 73.277309168697883, 22.540530243946016 ], [ 73.277128254167607, 22.540547110791199 ], [ 73.27705297854186, 22.5405586328163 ], [ 73.276952848150259, 22.540585123968839 ], [ 73.276827573439832, 22.540634085007685 ], [ 73.276717882434795, 22.540686320487602 ], [ 73.27664563386459, 22.540732790636767 ], [ 73.276569902712339, 22.540793281187234 ], [ 73.276521989279956, 22.540838911122403 ], [ 73.276451249396672, 22.5409192854937 ], [ 73.276378619253137, 22.541027858928299 ], [ 73.276295309509692, 22.541191127382056 ], [ 73.276245013331263, 22.541314694116458 ] ] } },
{ "type": "Feature", "properties": { "FeatureID": "3", "OBJECTID_1": 66, "baratmlatp": "State Highway", "RD_cat": "SH", "RD_NAME": "SH63", "Shape_Leng": 9393.3540010300003, "Shape_Le_1": 9665.6457527700004 }, "geometry": { "type": "LineString", "coordinates": [ [ 73.219657015622559, 22.547023597974416 ], [ 73.219641260818634, 22.54695098612401 ], [ 73.219639638709879, 22.546871610385889 ], [ 73.219653949513898, 22.546722454380706 ], [ 73.219672348037378, 22.546607282500375 ], [ 73.219687679718433, 22.546540257208335 ], [ 73.219710167397167, 22.546470398679844 ], [ 73.219793559636145, 22.546222833170507 ], [ 73.219810241380927, 22.546171665643385 ], [ 73.219977607104042, 22.545626437607766 ], [ 73.220027156953307, 22.545490899056443 ], [ 73.220054917373631, 22.545434246844717 ], [ 73.220071151312595, 22.545412213302541 ], [ 73.220103494016286, 22.545365094201284 ], [ 73.220143651543594, 22.54532084760125 ], [ 73.220249437089592, 22.545225286918566 ], [ 73.220325199886304, 22.54515969518987 ], [ 73.220516646686264, 22.545000764390657 ], [ 73.220752150971094, 22.544806216258028 ], [ 73.220892144444036, 22.544701087851699 ], [ 73.220946696144352, 22.54466215597645 ], [ 73.221044942969613, 22.544601104954527 ], [ 73.221083164753935, 22.54457904267629 ], [ 73.221123723478399, 22.544554270786751 ], [ 73.22120432693508, 22.544508188239721 ], [ 73.221270795644386, 22.544482022233456 ], [ 73.221344201665829, 22.544461729834861 ], [ 73.221382777517462, 22.544452162893663 ], [ 73.221536223490418, 22.544418817309342 ], [ 73.222474106551616, 22.544251279403948 ], [ 73.222973902258644, 22.544169780064742 ], [ 73.224161644659873, 22.543999852245467 ], [ 73.22439469594309, 22.543950762385716 ], [ 73.224640012346242, 22.54388656705494 ], [ 73.225200152531585, 22.543727967240386 ], [ 73.225733716690002, 22.543565590819551 ], [ 73.226506464250079, 22.543356012305349 ], [ 73.227298736041249, 22.543142441257316 ], [ 73.228409713827546, 22.542851888205259 ], [ 73.228830840927074, 22.542757482616395 ], [ 73.229049581437025, 22.542687622406984 ], [ 73.229188594483361, 22.542632867005679 ], [ 73.229398494008393, 22.542533161183155 ], [ 73.229654300862848, 22.542399468656242 ], [ 73.230591180005419, 22.541855245332972 ], [ 73.231020293192117, 22.541607620189581 ], [ 73.231049669447074, 22.541590444986053 ], [ 73.231491053249201, 22.541341056045766 ], [ 73.231545501344741, 22.541310921613299 ], [ 73.23191774327006, 22.541114818477958 ], [ 73.232275497619113, 22.540916563886981 ], [ 73.232473795492979, 22.540799499806766 ], [ 73.23273319661061, 22.54063700581764 ], [ 73.233117751273312, 22.540382222059502 ], [ 73.233820993375744, 22.539898856716416 ], [ 73.234344335210849, 22.539526891196598 ], [ 73.234446551511638, 22.539445700835984 ], [ 73.23474297511423, 22.539188911438245 ], [ 73.235240468540525, 22.538781135002324 ], [ 73.235515722873544, 22.538573370035067 ], [ 73.235708268824638, 22.538439045442637 ], [ 73.235994298604837, 22.538211069140985 ], [ 73.236334938256249, 22.537915024349783 ], [ 73.236541975265183, 22.537705204543204 ], [ 73.23676070547053, 22.537451795677217 ], [ 73.23717569992624, 22.536989189996788 ], [ 73.23782170034869, 22.536198037789998 ], [ 73.239193302771326, 22.534539717737989 ], [ 73.240377080578483, 22.533085965167999 ], [ 73.240935295590631, 22.532374977558369 ], [ 73.242425827827972, 22.530443275935408 ], [ 73.242472987172505, 22.53038179714277 ], [ 73.243226847673782, 22.529436233734408 ], [ 73.244038436852989, 22.528341020867519 ], [ 73.244126341778994, 22.528221114160338 ], [ 73.244239896158305, 22.528070494786906 ], [ 73.244269443631055, 22.528035115054816 ], [ 73.244297041660303, 22.528002069322994 ], [ 73.244357348535189, 22.527927482180477 ], [ 73.244445254103027, 22.52784439542032 ], [ 73.244657862098151, 22.527682000699002 ], [ 73.244884779403733, 22.52752527062129 ], [ 73.245060589552921, 22.527410083429128 ], [ 73.245209824317172, 22.527321332491102 ], [ 73.245404875484567, 22.527214869098145 ], [ 73.246037768245429, 22.526887017317023 ], [ 73.246497737151103, 22.5266434243348 ], [ 73.247106940912872, 22.526314853868506 ], [ 73.248535428492673, 22.525600461537117 ], [ 73.249065208655708, 22.525339454627687 ], [ 73.249347500059471, 22.525204509579307 ], [ 73.249780893713393, 22.525011898125108 ], [ 73.250322635005432, 22.524777742292681 ], [ 73.250829989315378, 22.524544238532869 ], [ 73.251322300755675, 22.524330201203902 ], [ 73.251859953607394, 22.524090380001525 ], [ 73.252109358968639, 22.523977077528112 ], [ 73.252407827618143, 22.523818454316135 ], [ 73.25280442359049, 22.523599404621951 ], [ 73.253186046588212, 22.52337507621495 ], [ 73.25349948718187, 22.523165077918108 ], [ 73.253949234666862, 22.522870491358209 ], [ 73.254446345431447, 22.522579026154521 ], [ 73.254839625940718, 22.522321975067651 ], [ 73.25492159737577, 22.522263465090703 ], [ 73.255258463637645, 22.521979484868591 ], [ 73.255533571974425, 22.521722351119635 ], [ 73.255940507842169, 22.521328302850954 ], [ 73.25629178498211, 22.520997274858775 ], [ 73.256786504154107, 22.52051851684292 ], [ 73.257660614841853, 22.51967890894845 ], [ 73.258262721112331, 22.519105008545591 ], [ 73.258992538252812, 22.518406287339165 ], [ 73.259665435003512, 22.517751468192451 ], [ 73.260284540166026, 22.517156133539721 ], [ 73.261478416021873, 22.516006056841924 ], [ 73.261504421399806, 22.515981073348026 ], [ 73.261703289059597, 22.515796436339389 ], [ 73.261816121311611, 22.515705430555244 ] ] } },
{ "type": "Feature", "properties": { "FeatureID": "4", "OBJECTID_1": 70, "baratmlatp": "State Highway", "RD_cat": "SH", "RD_NAME": "SH158", "Shape_Leng": 1148.45382393, "Shape_Le_1": 1148.45382393 }, "geometry": { "type": "LineString", "coordinates": [ [ 73.219657015622559, 22.547023597974416 ], [ 73.219701541467671, 22.547146857320715 ], [ 73.219770474172805, 22.547315301830658 ], [ 73.219846114022957, 22.547507882387659 ], [ 73.219931974518047, 22.547838289446251 ], [ 73.220093475261706, 22.548453789069679 ], [ 73.220179336429609, 22.548797409985667 ], [ 73.220254975405936, 22.549176902995065 ], [ 73.220351057314645, 22.549828267779315 ], [ 73.220443051396202, 22.550455086544535 ], [ 73.220543221757836, 22.551161198182534 ], [ 73.220661791586579, 22.552018344063853 ], [ 73.220811025823778, 22.553088826486306 ], [ 73.220937773644678, 22.553995047831506 ], [ 73.221039989111873, 22.554667158026721 ], [ 73.221071389346022, 22.55486675146555 ], [ 73.221092322462837, 22.554958581266078 ], [ 73.22111456553003, 22.555055243520975 ], [ 73.22116035792618, 22.555197820932751 ], [ 73.221276801827884, 22.555524055792333 ], [ 73.221398478836832, 22.55584424903963 ], [ 73.22149918048315, 22.556103741353652 ], [ 73.221641014567481, 22.55644370293092 ], [ 73.22179024938022, 22.55682128754351 ], [ 73.22190124425785, 22.557140915299925 ] ] } },
{ "type": "Feature", "properties": { "FeatureID": "5", "OBJECTID_1": 71, "baratmlatp": "State Highway", "RD_cat": "SH", "RD_NAME": "SH150", "Shape_Leng": 7488.7060967199996, "Shape_Le_1": 7488.7060967199996 }, "geometry": { "type": "LineString", "coordinates": [ [ 73.22190124425785, 22.557140915299925 ], [ 73.222107372257256, 22.557600640563887 ], [ 73.222267083851307, 22.557995919253791 ], [ 73.22235652149692, 22.558296804133523 ], [ 73.222417213107661, 22.558630135053413 ], [ 73.222460149863494, 22.558857082087812 ], [ 73.222488380425062, 22.55892912906917 ], [ 73.222507800613258, 22.55895461576424 ], [ 73.222552775816141, 22.558979157736911 ], [ 73.222588551105716, 22.558990486070307 ], [ 73.222718364443736, 22.558999925433362 ], [ 73.223474233172823, 22.558954696187278 ], [ 73.224637967992436, 22.558888539383783 ], [ 73.225741893864949, 22.558813023551622 ], [ 73.226066938256238, 22.558790369885052 ], [ 73.226137175058312, 22.558791878269044 ], [ 73.226189678835624, 22.558796032960551 ], [ 73.226222387994824, 22.558810532623117 ], [ 73.226239395960135, 22.55883469725828 ], [ 73.226242012840274, 22.558896317576529 ], [ 73.226222305391914, 22.559179273902682 ], [ 73.22608942575971, 22.56015153037978 ], [ 73.226015830814916, 22.560834938320973 ], [ 73.226007653397005, 22.560940658235918 ], [ 73.226014809549213, 22.561091687269879 ], [ 73.226051759884982, 22.561257706740587 ], [ 73.226071027059234, 22.561325781837283 ], [ 73.226101691560075, 22.561382416883262 ], [ 73.226144622215187, 22.561416398801274 ], [ 73.226189597144781, 22.561431500758715 ], [ 73.226222305609738, 22.561436220915223 ], [ 73.226278087218688, 22.561433379465154 ], [ 73.226533040333308, 22.561406958873462 ], [ 73.226680229829981, 22.561401295815472 ], [ 73.226831509019419, 22.561406959101284 ], [ 73.227480039691699, 22.561438919068134 ], [ 73.227927175576255, 22.561466236835329 ], [ 73.228014835650242, 22.561472278603222 ], [ 73.228114269789387, 22.561487985818491 ], [ 73.228255573321391, 22.561516983759457 ], [ 73.228370708910177, 22.561542355343072 ], [ 73.228460346662914, 22.561567966903308 ], [ 73.2288090071754, 22.561670427395992 ], [ 73.229085070521691, 22.561750170277577 ], [ 73.22919758956013, 22.561781583916609 ], [ 73.22923618589617, 22.561791853691155 ], [ 73.229336275160321, 22.561810580990048 ], [ 73.229406927123634, 22.561814809991123 ], [ 73.229473652705806, 22.561809373309128 ], [ 73.229552153507484, 22.561796083004761 ], [ 73.229596637424251, 22.561797290938244 ], [ 73.229628510044293, 22.561801544242243 ], [ 73.229737940767961, 22.561835954258417 ], [ 73.230026759518069, 22.561952547483315 ], [ 73.230704796747915, 22.562242774049057 ], [ 73.230819951008087, 22.56229047118795 ], [ 73.230987584193315, 22.562367873156862 ], [ 73.231241078393225, 22.562505684612006 ], [ 73.231472638546464, 22.56264199273269 ], [ 73.232229051347574, 22.563084042187686 ], [ 73.232921946905549, 22.56347986075232 ], [ 73.233060510496585, 22.563560982397501 ], [ 73.233215877849943, 22.563642159509929 ], [ 73.233424398076508, 22.56374221369197 ], [ 73.233757620146832, 22.563900790975755 ], [ 73.234334113613144, 22.564178300472093 ], [ 73.235166146423026, 22.564570964944256 ], [ 73.236313002555789, 22.565116540994623 ], [ 73.236429399120652, 22.565173870379258 ], [ 73.237001933877522, 22.565452569125323 ], [ 73.237584560951049, 22.565730076168343 ], [ 73.238340954392115, 22.566083092484707 ], [ 73.238772303519241, 22.56628886089096 ], [ 73.239183208668095, 22.566488966693989 ], [ 73.239291557047949, 22.566538049219581 ], [ 73.23941830428889, 22.566589018408916 ], [ 73.239649310897704, 22.56666453047059 ], [ 73.239989688380646, 22.56676363942147 ], [ 73.240229649454392, 22.566836998242458 ], [ 73.240370951039736, 22.566872186525774 ], [ 73.240489520781452, 22.566883512679855 ], [ 73.240624444925416, 22.566883512411746 ], [ 73.240681685296394, 22.566883512316565 ], [ 73.240801277689556, 22.566872186361412 ], [ 73.240910754215633, 22.566845853095622 ], [ 73.241041483685365, 22.566804226425894 ], [ 73.241266624952146, 22.566732002120723 ], [ 73.242079991797937, 22.566481416042642 ], [ 73.242854782720741, 22.566234115614428 ], [ 73.243400612730511, 22.566052887879017 ], [ 73.244717147026179, 22.56563379797872 ], [ 73.245214822090219, 22.565483248753004 ], [ 73.246107274537707, 22.565226033667955 ], [ 73.247174402806593, 22.564910770350391 ], [ 73.247848102908748, 22.564713640725085 ], [ 73.248592129545642, 22.564491677254075 ], [ 73.248809848009671, 22.564423715776002 ], [ 73.249077987072283, 22.564334387000155 ], [ 73.249310702648174, 22.564261363795971 ], [ 73.249668456480791, 22.5641329921975 ], [ 73.250937971393071, 22.563649710498563 ], [ 73.252107314984144, 22.563213622876816 ], [ 73.252716518317598, 22.562981420417824 ], [ 73.253244971409998, 22.562776589533591 ], [ 73.253914481853755, 22.562522676136044 ], [ 73.254558437750475, 22.562271593473319 ], [ 73.255478375649275, 22.561903463187797 ], [ 73.256455553945912, 22.561518342392684 ], [ 73.25744908708765, 22.561127556834911 ], [ 73.258295430064834, 22.560793405366859 ], [ 73.258981642097652, 22.560522150526268 ], [ 73.259767435976158, 22.560202722961222 ], [ 73.259884577109361, 22.560154924863422 ], [ 73.260051489292209, 22.560079791285997 ], [ 73.260184369213235, 22.560004276536912 ], [ 73.260370400947494, 22.559892891452908 ], [ 73.260552343804733, 22.559770180380156 ], [ 73.260648619490254, 22.559676208039026 ], [ 73.260726111141537, 22.559592719662604 ], [ 73.260893743638732, 22.55940393161773 ], [ 73.261184034912787, 22.558998036741681 ], [ 73.261419130334346, 22.558645001434432 ], [ 73.261593333098403, 22.558401730071132 ], [ 73.26195473902645, 22.55792571376541 ], [ 73.262443328060812, 22.55725361929267 ], [ 73.262682511918086, 22.556898691493554 ], [ 73.263373487113967, 22.55589620505739 ], [ 73.26382323504383, 22.555263747470882 ], [ 73.264185077557727, 22.554774770372841 ], [ 73.264232692169983, 22.554712092692512 ], [ 73.264367020357369, 22.554529337457161 ], [ 73.264469088323494, 22.554405153040779 ], [ 73.264569407088175, 22.554297119685355 ], [ 73.264643001535077, 22.554221602040322 ], [ 73.264755439806507, 22.554117764221033 ], [ 73.264884106606146, 22.554012916583865 ], [ 73.264977207894773, 22.55394735915969 ], [ 73.265232784286738, 22.553793980760016 ], [ 73.265372819183057, 22.553719406282202 ], [ 73.265819005331366, 22.55349253972507 ], [ 73.266421548597776, 22.553200215809753 ], [ 73.267100258262005, 22.552862270216853 ], [ 73.267417125988004, 22.552709344563876 ], [ 73.268365684182314, 22.552227909854601 ], [ 73.269461431793843, 22.551661515389625 ], [ 73.27036706005714, 22.551193294354626 ], [ 73.270548991264263, 22.551101408913528 ], [ 73.271921590735289, 22.550397598382531 ], [ 73.272517669957935, 22.5500888137062 ], [ 73.272685303928498, 22.550007629203449 ], [ 73.272852936955076, 22.549913228481419 ], [ 73.273036924476997, 22.54979617184194 ], [ 73.273210689854054, 22.549671562722292 ], [ 73.273355836506141, 22.549541289791613 ], [ 73.273523468608317, 22.549365704650199 ], [ 73.273781051715432, 22.549040964616562 ], [ 73.27438821045979, 22.54803842073067 ], [ 73.274771319707227, 22.547400274735889 ], [ 73.275132338250756, 22.546824409015251 ], [ 73.27543489635606, 22.546284424334065 ], [ 73.275596396162825, 22.545944572779472 ], [ 73.275960283200419, 22.545068508003226 ], [ 73.276005256760641, 22.544911797361632 ], [ 73.276029789405598, 22.544790961106941 ], [ 73.276046143164947, 22.544600265044902 ], [ 73.276042055315912, 22.544307610501878 ], [ 73.275978681408446, 22.543624121932442 ], [ 73.27597459344048, 22.543499507331656 ], [ 73.275973119286903, 22.543375638715993 ], [ 73.275975604424147, 22.543329611480324 ], [ 73.27600525689617, 22.543057691721138 ], [ 73.276109516872125, 22.542274125885882 ], [ 73.276207510075167, 22.541627650100398 ], [ 73.276245226543026, 22.541327899810678 ], [ 73.276245013331263, 22.541314694116458 ] ] } },
{ "type": "Feature", "properties": { "FeatureID": "6", "OBJECTID_1": 72, "baratmlatp": "State Highway", "RD_cat": "SH", "RD_NAME": "SH63", "Shape_Leng": 1263.69536412, "Shape_Le_1": 1263.69536412 }, "geometry": { "type": "LineString", "coordinates": [ [ 73.22190124425785, 22.557140915299925 ], [ 73.221908819255503, 22.557251730944586 ], [ 73.221904730065376, 22.557348014259105 ], [ 73.221902685850253, 22.557412202850418 ], [ 73.221892464326388, 22.557491495410183 ], [ 73.221867933074449, 22.55756701192605 ], [ 73.221786160941889, 22.557736923360995 ], [ 73.221767697369714, 22.557769099258085 ], [ 73.221156515012936, 22.558816799685999 ], [ 73.220807101400908, 22.559425528786118 ], [ 73.22045306278234, 22.560060874719579 ], [ 73.220438144982936, 22.560087644977887 ], [ 73.220319084625046, 22.560331709437591 ], [ 73.220260209203815, 22.560454949072824 ], [ 73.220205258488804, 22.560566106415994 ], [ 73.220168623811475, 22.560660348573904 ], [ 73.220141147639225, 22.560734051227005 ], [ 73.220130026792177, 22.560776339655213 ], [ 73.220114326697939, 22.560879038899746 ], [ 73.220109747440873, 22.560939450619628 ], [ 73.220097971830725, 22.561120684022502 ], [ 73.220097971872519, 22.561270504874987 ], [ 73.220107130477814, 22.561547188625937 ], [ 73.220138449488047, 22.562041276210795 ], [ 73.220171158846412, 22.562877588627149 ], [ 73.220189984770798, 22.563287867026688 ], [ 73.22021572385691, 22.563733237261221 ], [ 73.220247543515725, 22.56419100101273 ], [ 73.220306082734282, 22.564988170635573 ], [ 73.220361279221834, 22.56588676290507 ], [ 73.220406254047688, 22.566451210905129 ], [ 73.220426697618691, 22.566609784990842 ], [ 73.220441007578771, 22.566721163700194 ], [ 73.220461450551554, 22.566813665419595 ], [ 73.22051460170286, 22.566987340914981 ], [ 73.220573886727649, 22.567136475269251 ], [ 73.220610684442534, 22.567232751438528 ], [ 73.220690412139575, 22.567361119916143 ], [ 73.22079262775614, 22.567478162507019 ], [ 73.221067384664536, 22.567734786756329 ], [ 73.22119569580164, 22.567854629470869 ], [ 73.221243723119571, 22.567897947423372 ] ] } },
{ "type": "Feature", "properties": { "FeatureID": "7", "OBJECTID_1": 76, "baratmlatp": "State Highway", "RD_cat": "SH", "RD_NAME": "SH150", "Shape_Leng": 15661.425657, "Shape_Le_1": 15562.1896194 }, "geometry": { "type": "LineString", "coordinates": [ [ 73.109150894904317, 22.61852090059925 ], [ 73.110404979293563, 22.617724251133932 ], [ 73.111489825419511, 22.617039831497983 ], [ 73.111992445514289, 22.616727158720899 ], [ 73.11211888036587, 22.616642145358615 ], [ 73.112242193784098, 22.616575864852635 ], [ 73.112423262390905, 22.616495174015604 ], [ 73.112833785885812, 22.616348203612215 ], [ 73.113601763542661, 22.616077314109525 ], [ 73.113790886137693, 22.615989592254095 ], [ 73.114110023097822, 22.615825539295002 ], [ 73.117441845577048, 22.613964675063432 ], [ 73.118064462376893, 22.613614798184809 ], [ 73.118315083885463, 22.613474652415206 ], [ 73.118746900640886, 22.613233183739649 ], [ 73.119695113007054, 22.612705268041552 ], [ 73.120864769619573, 22.612084528864624 ], [ 73.121707671417212, 22.611655128020693 ], [ 73.122344530818225, 22.611312182725392 ], [ 73.122789395561639, 22.611081631047533 ], [ 73.123349768835283, 22.610777590100096 ], [ 73.124211402561897, 22.610312161327929 ], [ 73.124452805345342, 22.610175372369675 ], [ 73.124746801175007, 22.609989386574828 ], [ 73.125424245293672, 22.609583034486814 ], [ 73.126059543187935, 22.609206826559305 ], [ 73.126795802760867, 22.608766004866528 ], [ 73.126918679443179, 22.608701448191592 ], [ 73.127104492232263, 22.608608304065196 ], [ 73.127228367319915, 22.608553892780098 ], [ 73.127371224253508, 22.608493947792915 ], [ 73.127534059748953, 22.60843861467378 ], [ 73.127846808457804, 22.608342357885171 ], [ 73.128071582280825, 22.608273190593827 ], [ 73.128252650408285, 22.608212669180556 ], [ 73.128310404968019, 22.608191775358076 ], [ 73.128418888812931, 22.608147105360771 ], [ 73.128469619082367, 22.608123328299119 ], [ 73.128485080338564, 22.608114894452918 ], [ 73.128577337892864, 22.60805856097728 ], [ 73.128692831421759, 22.607977789227583 ], [ 73.12889575257708, 22.607822162778046 ], [ 73.129655925432331, 22.607195333203165 ], [ 73.130113278637097, 22.606839407725165 ], [ 73.130147619489762, 22.606812749836379 ], [ 73.13028029729557, 22.606729892338119 ], [ 73.130486340151634, 22.606623258779759 ], [ 73.130963984915752, 22.606365320196534 ], [ 73.131792838369094, 22.605945988040617 ], [ 73.132809003548473, 22.605425785604499 ], [ 73.133147725189318, 22.605237012756746 ], [ 73.133739316863142, 22.604911343589787 ], [ 73.134423005027671, 22.60451650524849 ], [ 73.135114497240068, 22.604061142614835 ], [ 73.135650550929199, 22.603728451252913 ], [ 73.136692597255433, 22.603065391234125 ], [ 73.136998539306049, 22.602875174258131 ], [ 73.137313847080151, 22.602670546989579 ], [ 73.137565157005554, 22.60251203304961 ], [ 73.137885146865628, 22.602300200159565 ], [ 73.13863127095118, 22.601826096983377 ], [ 73.1402166878472, 22.600825465622396 ], [ 73.140409170011111, 22.600717927013633 ], [ 73.140585554504383, 22.600647314423686 ], [ 73.140740088067261, 22.600596878281234 ], [ 73.14090242419735, 22.600570938254879 ], [ 73.141053834123895, 22.600557969396256 ], [ 73.141192756367943, 22.600549322278422 ], [ 73.14133480104978, 22.600547882337853 ], [ 73.141450309696381, 22.600559410794343 ], [ 73.141984147894192, 22.600638668929683 ], [ 73.142311943801673, 22.6006919873698 ], [ 73.143068994479407, 22.600808713733194 ], [ 73.143760934827981, 22.600890497627791 ], [ 73.145318294462072, 22.601095484060409 ], [ 73.146848005610138, 22.601297231270131 ], [ 73.146983805425876, 22.601314523988993 ], [ 73.147489547380601, 22.601372166487188 ], [ 73.14806552969938, 22.601448541700229 ], [ 73.149434464985092, 22.601618585210083 ], [ 73.150699306645819, 22.601773407893521 ], [ 73.150831009191904, 22.601791421406414 ], [ 73.151155390613653, 22.601836454107254 ], [ 73.152189506979056, 22.601955790281977 ], [ 73.153191916401894, 22.60208638552416 ], [ 73.154986985232981, 22.602298038525287 ], [ 73.156155829672329, 22.602442863504347 ], [ 73.157491685677186, 22.602589304831895 ], [ 73.158748808834602, 22.602736264231531 ], [ 73.158860139669471, 22.602759171438343 ], [ 73.158929601774631, 22.602777184154757 ], [ 73.158977334422062, 22.60280049689208 ], [ 73.15902637830888, 22.602839149566062 ], [ 73.159057597207877, 22.602875174866586 ], [ 73.159088816270312, 22.602927052460114 ], [ 73.159113791382467, 22.602994781167201 ], [ 73.159176501573228, 22.603202594417738 ], [ 73.159351052387734, 22.603830578736854 ], [ 73.159397571489436, 22.603983019396235 ], [ 73.160107735039787, 22.606287975601923 ], [ 73.160529756109653, 22.607591737464752 ], [ 73.1608438602522, 22.608490789328577 ], [ 73.160977052799737, 22.608888397501463 ], [ 73.16106026959875, 22.609153625988402 ], [ 73.161085402455996, 22.609213288334619 ], [ 73.161124347328382, 22.609284778288561 ], [ 73.161133633903916, 22.609300605161227 ], [ 73.161172657148782, 22.609364008206946 ], [ 73.161211680456333, 22.609408678188728 ], [ 73.161264752433098, 22.609456229158994 ], [ 73.161285391377803, 22.609471359810414 ], [ 73.161342631894058, 22.609506787093462 ], [ 73.16140679608138, 22.609536924100119 ], [ 73.162280373001693, 22.609805894328744 ], [ 73.162940507694515, 22.60999436774804 ], [ 73.163602002825712, 22.610143890693234 ], [ 73.164417946060112, 22.610297836486946 ], [ 73.165033031398991, 22.610405914136894 ], [ 73.165056637794805, 22.610409881221624 ], [ 73.165647646661952, 22.610502728356924 ], [ 73.166952486357857, 22.61070311152498 ], [ 73.168365421070106, 22.610924567522254 ], [ 73.169535549498931, 22.611104968889958 ], [ 73.170588185306769, 22.611266073064385 ], [ 73.171231288185353, 22.611369820459814 ], [ 73.172111651852248, 22.611506710633556 ], [ 73.172859081728291, 22.611628106537495 ], [ 73.173343224642693, 22.611709888063356 ], [ 73.173543025209341, 22.611741584361315 ], [ 73.174087789415267, 22.611820836122138 ], [ 73.174150039996476, 22.611830830714513 ], [ 73.174498313612673, 22.611894324361558 ], [ 73.174691868853429, 22.611921701994813 ], [ 73.174830791078691, 22.611943316800268 ], [ 73.174979080184173, 22.611951961667799 ], [ 73.175124246746165, 22.611953403267993 ], [ 73.175267851392235, 22.611949079875796 ], [ 73.175363068989284, 22.611937552331675 ], [ 73.175467651746516, 22.611917379632381 ], [ 73.175584720967649, 22.611888561126648 ], [ 73.175709595384419, 22.611842450003813 ], [ 73.17580407622718, 22.611804621106121 ], [ 73.175858498834074, 22.611780178003027 ], [ 73.175927927468408, 22.611742858005488 ], [ 73.175996958228666, 22.611697499794527 ], [ 73.17609046218702, 22.611624868163936 ], [ 73.176254127630742, 22.611484839068165 ], [ 73.176279123564157, 22.611458491811966 ], [ 73.17632500067694, 22.611401690342035 ], [ 73.176379233991696, 22.611326592924556 ], [ 73.176432127316772, 22.611244308119268 ], [ 73.176515970016197, 22.611092229496396 ], [ 73.176569667932128, 22.610986528288315 ], [ 73.176805368020524, 22.610482194621945 ], [ 73.177012971432305, 22.610034055972818 ], [ 73.177259036464889, 22.609488103120874 ], [ 73.178198497774261, 22.607454170856926 ], [ 73.179008229458972, 22.605675439364902 ], [ 73.179393298518946, 22.604828596290943 ], [ 73.179699331191017, 22.604140399358425 ], [ 73.18025941216905, 22.602872202512224 ], [ 73.180608182179427, 22.602113404668195 ], [ 73.18098136394228, 22.601297369728197 ], [ 73.181291089954811, 22.600611559361834 ], [ 73.181489717553816, 22.600189056664668 ], [ 73.181797221537408, 22.599546340354564 ], [ 73.182034482661251, 22.599079433440828 ], [ 73.18222335503124, 22.598668725985917 ], [ 73.182418470655435, 22.598221990592187 ], [ 73.182585490015839, 22.597791105310968 ], [ 73.182857092669053, 22.597136848565093 ], [ 73.183092792079293, 22.596556086511921 ], [ 73.183389369054581, 22.595862914378976 ], [ 73.183493951518287, 22.595609278958573 ], [ 73.183523239568444, 22.595518771599416 ], [ 73.183565588920032, 22.59536639378835 ], [ 73.183595412614622, 22.595225942849542 ], [ 73.183611020913176, 22.59510056583354 ], [ 73.183620387188142, 22.594985275906016 ], [ 73.183609459769684, 22.594773430575572 ], [ 73.183556388467295, 22.594172481918505 ], [ 73.183523609208606, 22.59371276252244 ], [ 73.18347607400429, 22.593139019977048 ], [ 73.183442440649429, 22.592595879842097 ], [ 73.183365955691642, 22.591624546157295 ], [ 73.183305079514483, 22.590821821254547 ], [ 73.183272299700349, 22.590347676998466 ], [ 73.183120890068309, 22.588541883302351 ], [ 73.183114040102126, 22.588478777906786 ], [ 73.183051755452652, 22.587794178139351 ], [ 73.183039481012869, 22.587538657661518 ], [ 73.182992742841179, 22.58671734291304 ], [ 73.182934943735503, 22.585999787517096 ], [ 73.182928797278208, 22.585907459524506 ], [ 73.182908602128393, 22.585446180796062 ], [ 73.182910590747454, 22.585381041434964 ], [ 73.182915976546141, 22.585343453417099 ], [ 73.182923393308627, 22.585312431114339 ], [ 73.18293045613288, 22.585293412014742 ], [ 73.182948852495599, 22.585264748129916 ], [ 73.182976352787506, 22.585236569243108 ], [ 73.183054558716762, 22.585169553172182 ], [ 73.183200111589485, 22.585047006112891 ], [ 73.183770235948955, 22.58461891836038 ], [ 73.184609865901351, 22.58401384613672 ], [ 73.185456040945027, 22.583411164817008 ], [ 73.186035312548199, 22.583006977374431 ], [ 73.186275380709574, 22.582852544320872 ], [ 73.186630770811007, 22.582641544155852 ], [ 73.186702149821187, 22.582600960483923 ], [ 73.186882201310468, 22.582507372365523 ], [ 73.187243520946396, 22.582348370578906 ], [ 73.18725267013221, 22.582344643011766 ], [ 73.188382783296007, 22.581863264671213 ], [ 73.188961658375234, 22.581615762310172 ], [ 73.189302323853738, 22.581443689177501 ], [ 73.189808462578441, 22.581167497493638 ], [ 73.190013955123646, 22.581048952380293 ], [ 73.19071032385952, 22.580615401413585 ], [ 73.191258858605025, 22.580283910389081 ], [ 73.191725512483004, 22.579986336136805 ], [ 73.192202378184035, 22.579666772622993 ], [ 73.193054157813265, 22.579135840987195 ], [ 73.193293175333153, 22.578975948253994 ], [ 73.193651945373077, 22.578720841544829 ], [ 73.193999434854447, 22.578487130089417 ], [ 73.194382997662814, 22.578247105320987 ], [ 73.194754498226999, 22.578004968077945 ], [ 73.194826301628638, 22.577958846726585 ], [ 73.195030606336289, 22.577843613649641 ], [ 73.195102585674178, 22.577806068831428 ], [ 73.195575546923237, 22.577566813307708 ], [ 73.196082849787288, 22.577305937612639 ], [ 73.196587029869661, 22.577066680881707 ], [ 73.197055307952184, 22.576831748041521 ], [ 73.197234815535225, 22.576743828017129 ], [ 73.197781124012593, 22.576469543770706 ], [ 73.19876374621856, 22.575971734292793 ], [ 73.200068585344965, 22.575343408371786 ], [ 73.201035974533113, 22.574909477634669 ], [ 73.201553908337758, 22.574654273601048 ], [ 73.201744081524552, 22.574554388038056 ], [ 73.2018525029887, 22.574503498529921 ], [ 73.201932287280599, 22.57447173440449 ], [ 73.202077131727137, 22.574420766513114 ], [ 73.20230783655839, 22.574352675110518 ], [ 73.202582560325013, 22.574264752985524 ], [ 73.202923387593344, 22.574170338840936 ], [ 73.203581555269693, 22.574000988773928 ], [ 73.203729843757174, 22.573959189759115 ], [ 73.203923399509208, 22.573888564690655 ], [ 73.204658596918534, 22.573632004796526 ], [ 73.205326674845267, 22.573402831578026 ], [ 73.205805879856783, 22.573215457688903 ], [ 73.206079043879413, 22.573113842909244 ], [ 73.206542583387971, 22.572926089504602 ], [ 73.206918535040003, 22.572761143427996 ], [ 73.207358102815078, 22.5725588495539 ], [ 73.207424564503, 22.572527932724359 ], [ 73.207982523330912, 22.572266340468904 ], [ 73.208371625050646, 22.57208607763279 ], [ 73.208721697803455, 22.571929769965564 ], [ 73.209307795167206, 22.571694078900741 ], [ 73.209824396934636, 22.571517089978293 ], [ 73.210546327128853, 22.571323406127732 ], [ 73.210849839219293, 22.571246621369415 ], [ 73.211415861465028, 22.571093778513834 ], [ 73.212296445047684, 22.570831921500488 ], [ 73.212790162680193, 22.570681546437712 ], [ 73.213412095498185, 22.570476601677044 ], [ 73.214087685557558, 22.570258142837993 ], [ 73.21429987410491, 22.570181569893897 ], [ 73.214551086226379, 22.570084727117564 ], [ 73.214781397628954, 22.569975555842809 ], [ 73.215215851790973, 22.569765176655352 ], [ 73.21545511182515, 22.569642961190922 ], [ 73.21627054777484, 22.56918836616865 ], [ 73.2170742318431, 22.568714058369878 ], [ 73.217222520524473, 22.56863910590587 ], [ 73.21732241990955, 22.568591539817351 ], [ 73.21744105018999, 22.568546857278218 ], [ 73.21757060792585, 22.568506496997831 ], [ 73.217873428147797, 22.568447400179679 ], [ 73.218185926537188, 22.568386394407412 ], [ 73.218511848541084, 22.568314791940953 ], [ 73.218786571989426, 22.56825425301443 ], [ 73.219036320498248, 22.568223983618203 ], [ 73.219358683597292, 22.568189563250336 ], [ 73.219941172223187, 22.568136599122379 ], [ 73.220735727999724, 22.568075455593714 ], [ 73.220874307849058, 22.568052093685893 ], [ 73.220991295928869, 22.568026680134015 ], [ 73.221064638402197, 22.568000363405254 ], [ 73.221243723119571, 22.567897947423372 ] ] } },
{ "type": "Feature", "properties": { "FeatureID": "8", "OBJECTID_1": 82, "baratmlatp": "State Highway", "RD_cat": "SH", "RD_NAME": "SH12", "Shape_Leng": 8920.6223944899994, "Shape_Le_1": 8725.3209241299992 }, "geometry": { "type": "LineString", "coordinates": [ [ 73.109127716587693, 22.620215603756815 ], [ 73.110103567281911, 22.621651468416903 ], [ 73.111514028290486, 22.623707156819538 ], [ 73.113607424376198, 22.62671804818055 ], [ 73.113928604137428, 22.62721707841089 ], [ 73.114010745138955, 22.627346868564626 ], [ 73.114105063417071, 22.62750145849941 ], [ 73.114467254961212, 22.628097563818503 ], [ 73.115733687230787, 22.630131635044386 ], [ 73.117495338746423, 22.632918221281216 ], [ 73.118212329652948, 22.634138173310056 ], [ 73.11826722373192, 22.634269136358618 ], [ 73.118341764101828, 22.634504502072598 ], [ 73.1183947262939, 22.634788750773435 ], [ 73.118412381551551, 22.63507118988489 ], [ 73.11837678898614, 22.635845834071606 ], [ 73.118228328157358, 22.638051466068728 ], [ 73.118099025086551, 22.63985484239625 ], [ 73.117979298443316, 22.641896872167649 ], [ 73.117897884504899, 22.643116771170813 ], [ 73.117849993976392, 22.643930031931845 ], [ 73.117725478816723, 22.647138827634478 ], [ 73.117631194992526, 22.650454172511136 ], [ 73.117661126168656, 22.653900090859668 ], [ 73.117691057620945, 22.657691191691757 ], [ 73.117676740363109, 22.658409093369393 ], [ 73.117560107673498, 22.659811123659974 ], [ 73.117541399477588, 22.660108049395784 ], [ 73.117503986041825, 22.660556890102914 ], [ 73.117474054490486, 22.661205979774238 ], [ 73.117511469184052, 22.662276280133234 ], [ 73.117676092049777, 22.664824253201921 ], [ 73.117692721759852, 22.665061442760486 ], [ 73.117689656888047, 22.665231139887819 ], [ 73.117683526942784, 22.665400837108113 ], [ 73.117634486919172, 22.66563558418326 ], [ 73.117563992269424, 22.66588729997104 ], [ 73.117487367905639, 22.666076793904399 ], [ 73.117223778832411, 22.666568911891407 ], [ 73.116575241686775, 22.667682662864916 ], [ 73.116404365237017, 22.668010888237525 ], [ 73.116324157493295, 22.66821039728821 ], [ 73.116247438049967, 22.668425995182773 ], [ 73.116205590494829, 22.668606196944992 ], [ 73.116174205580165, 22.6687960515175 ], [ 73.116149793467102, 22.668985906832592 ], [ 73.116155460964109, 22.669312922451613 ], [ 73.116220846902152, 22.669830796649492 ], [ 73.116373416065215, 22.670610116836503 ], [ 73.116482393323807, 22.671263737974026 ], [ 73.116520534624811, 22.671590546764676 ], [ 73.11653688093655, 22.671892216899234 ], [ 73.116515086455948, 22.672264274354173 ], [ 73.116471494887222, 22.672756998268071 ], [ 73.11637886377261, 22.673460885546696 ], [ 73.116362517314201, 22.6737927180097 ], [ 73.116362517843456, 22.67481837483313 ], [ 73.116335272944397, 22.676311596524155 ], [ 73.116337563913703, 22.676437354088055 ], [ 73.116318405047707, 22.677704076346075 ], [ 73.116305424813831, 22.678413440672635 ], [ 73.116302579690313, 22.678614243256309 ], [ 73.116286233786155, 22.678885731022618 ], [ 73.116248092020228, 22.679212522460311 ], [ 73.116160909359138, 22.679670028179309 ], [ 73.115937506244904, 22.680620228645061 ], [ 73.115299989539693, 22.683355159780863 ], [ 73.115005750990861, 22.684677358760606 ], [ 73.114864080153524, 22.685446540319699 ], [ 73.114733307182348, 22.686125227762712 ], [ 73.114537148265825, 22.687598216640133 ], [ 73.114406374593102, 22.688518198667509 ], [ 73.114390137649664, 22.688592310793773 ], [ 73.114331180405628, 22.688809776452878 ], [ 73.11430153840881, 22.688893429185647 ], [ 73.114214357375971, 22.6890896903612 ], [ 73.114134149563725, 22.68921516896846 ], [ 73.114047172113033, 22.689343129647323 ], [ 73.113923169720266, 22.689499908557423 ], [ 73.113841218353571, 22.689594821315627 ], [ 73.113590135489147, 22.689861863211856 ], [ 73.112627647239691, 22.690872117919159 ], [ 73.111497771068656, 22.692033579030984 ], [ 73.110273737344528, 22.69330763589878 ], [ 73.110212710497549, 22.69337841717892 ], [ 73.110111580047601, 22.693519977568695 ], [ 73.110071475479671, 22.693590757584413 ], [ 73.110022653650759, 22.693751622220816 ], [ 73.109904086755378, 22.694192390238612 ], [ 73.109820556687964, 22.694600798312788 ] ] } },
{ "type": "Feature", "properties": { "FeatureID": "9", "OBJECTID_1": 84, "baratmlatp": "State Highway", "RD_cat": "SH", "RD_NAME": "SH63", "Shape_Leng": 17592.6929408, "Shape_Le_1": 17592.6929408 }, "geometry": { "type": "LineString", "coordinates": [ [ 73.221243723119571, 22.567897947423372 ], [ 73.221490185230039, 22.568120244052341 ], [ 73.221579216882702, 22.568193604384913 ], [ 73.221661400300874, 22.568255581365204 ], [ 73.22176138857786, 22.568315028018841 ], [ 73.221921646079238, 22.56838079932383 ], [ 73.222058617983237, 22.568422538237531 ], [ 73.222196959857129, 22.568455423902922 ], [ 73.22239830865702, 22.568492104026728 ], [ 73.222790047666024, 22.568580641497547 ], [ 73.223085907655033, 22.568661590360641 ], [ 73.22328725560196, 22.568727361369643 ], [ 73.22351873839807, 22.568813370182291 ], [ 73.22367488546935, 22.568887994270955 ], [ 73.223828295061068, 22.568984121122142 ], [ 73.223976223807313, 22.569096690240873 ], [ 73.224141959947445, 22.569234555482186 ], [ 73.224318654054045, 22.569397717871112 ], [ 73.224410425794346, 22.569506491716215 ], [ 73.224481650311745, 22.569631708534494 ], [ 73.224540548256186, 22.56978475226504 ], [ 73.224574791330227, 22.569893525248784 ], [ 73.22462136109128, 22.570056687276391 ], [ 73.224666562379568, 22.57019202094979 ], [ 73.224740527343215, 22.570390596681147 ], [ 73.224863801276214, 22.570671384950678 ], [ 73.224939136250711, 22.570875018572668 ], [ 73.2249651615967, 22.570963554678901 ], [ 73.224993925295621, 22.57105588509188 ], [ 73.22501036214949, 22.571153275683439 ], [ 73.225041865969956, 22.571374615920519 ], [ 73.225076108976154, 22.571673108998933 ], [ 73.225121308980491, 22.57197792459035 ], [ 73.225280196774548, 22.572705179611773 ], [ 73.225433872218915, 22.573368846687874 ], [ 73.22560696008857, 22.574049407122782 ], [ 73.225690364193582, 22.574378251156979 ], [ 73.226370871970232, 22.577236556463305 ], [ 73.226469454425711, 22.577657925379206 ], [ 73.226576464247955, 22.578134179270101 ], [ 73.226702734965912, 22.578665763727834 ], [ 73.226721140495812, 22.578744415212366 ], [ 73.226747164957601, 22.57885697676025 ], [ 73.226794762174109, 22.579001708630315 ], [ 73.226854688627213, 22.579143991050444 ], [ 73.226967004612504, 22.579331882259208 ], [ 73.227015629308809, 22.579413457312612 ], [ 73.227133425705887, 22.57960696108055 ], [ 73.227423806527227, 22.580074907856819 ], [ 73.227877696769568, 22.580805915381891 ], [ 73.228483369455134, 22.581799898293426 ], [ 73.228712369186454, 22.582201045789343 ], [ 73.228797634546964, 22.582390593684828 ], [ 73.228881187504385, 22.582658709168935 ], [ 73.229031856122688, 22.583181028279078 ], [ 73.2293629854111, 22.58446563379033 ], [ 73.229602685931269, 22.585382524888157 ], [ 73.229682142043984, 22.585703490408207 ], [ 73.229835966266307, 22.586333002030582 ], [ 73.230071386791835, 22.587332873272324 ], [ 73.230199798452929, 22.587929630478488 ], [ 73.23028326459783, 22.588287288969685 ], [ 73.230349611211878, 22.588559978004046 ], [ 73.230460900894712, 22.588951226254185 ], [ 73.230505844442689, 22.589107330363564 ], [ 73.230555069001397, 22.589251577162933 ], [ 73.230564538192226, 22.589278321623805 ], [ 73.230638536337736, 22.589482769233296 ], [ 73.230792091811026, 22.589840401464819 ], [ 73.230799096003224, 22.589857987657904 ], [ 73.230891101384074, 22.590087630077416 ], [ 73.230953253052419, 22.590223782157633 ], [ 73.23102590937637, 22.59037591354469 ], [ 73.231214245614723, 22.590727637714117 ], [ 73.231539554834896, 22.591241391096101 ], [ 73.231886263870621, 22.591765020910302 ], [ 73.231952610062919, 22.591889505836757 ], [ 73.232007645990493, 22.5919981895372 ], [ 73.232070320679142, 22.592144403780402 ], [ 73.232132556640892, 22.592341130885814 ], [ 73.232140946251747, 22.592367687283193 ], [ 73.232387067523703, 22.593079027628455 ], [ 73.232483274469175, 22.593380767353061 ], [ 73.232546554083555, 22.59357893901721 ], [ 73.23258901599219, 22.593678842509998 ], [ 73.232639695206771, 22.593785068643449 ], [ 73.232725987341865, 22.593926703019083 ], [ 73.232888983341311, 22.594231470641322 ], [ 73.233376071642994, 22.595065257021577 ], [ 73.2334122162776, 22.595130592037556 ], [ 73.233694378599438, 22.595728738101364 ], [ 73.233918888276079, 22.596220309431274 ], [ 73.233957667786555, 22.596315556445287 ], [ 73.234166090126735, 22.5967532665763 ], [ 73.234179258241127, 22.596778332978666 ], [ 73.234303599139409, 22.597059747575859 ], [ 73.234511875931304, 22.597522526307866 ], [ 73.234642223508189, 22.597803893863674 ], [ 73.234694382822781, 22.597904262066319 ], [ 73.235047317252935, 22.598629331988775 ], [ 73.235368345227528, 22.599301123358313 ], [ 73.235410831073182, 22.599390654558551 ], [ 73.235678672539564, 22.599953151751755 ], [ 73.235722109579172, 22.600048893928633 ], [ 73.23586361287893, 22.600359625211439 ], [ 73.236128367853254, 22.600907085797456 ], [ 73.236328347770183, 22.601348405304488 ], [ 73.236404616860355, 22.601549598418568 ], [ 73.236498041906742, 22.601809210093556 ], [ 73.236549728417728, 22.601934906882608 ], [ 73.236575410553542, 22.60205543136453 ], [ 73.23659467166074, 22.602215472085671 ], [ 73.236628914774911, 22.602490110168738 ], [ 73.236673857876312, 22.602885269765885 ], [ 73.236753045533661, 22.603657806108217 ], [ 73.236825812416512, 22.604205098164893 ], [ 73.236847213705644, 22.604311789969106 ], [ 73.236883597255542, 22.604428360855767 ], [ 73.236952082887356, 22.604592349619612 ], [ 73.237052671614421, 22.604801782091378 ], [ 73.237241008265357, 22.605175202524119 ], [ 73.237636942127722, 22.605858817053161 ], [ 73.237741811393263, 22.606051452709849 ], [ 73.23811634370837, 22.606720243685206 ], [ 73.238507095787426, 22.607393618120167 ], [ 73.238581534134767, 22.607522947076255 ], [ 73.238656868709555, 22.607648129836164 ], [ 73.23873357273358, 22.607741699702967 ], [ 73.238834932862105, 22.607854236728279 ], [ 73.238973274014867, 22.607983212919041 ], [ 73.239155446267901, 22.608146328890566 ], [ 73.239406104752973, 22.608344849303169 ], [ 73.239796475345344, 22.60868119574323 ], [ 73.240072473660561, 22.608925157423418 ], [ 73.240500510034394, 22.609334128925106 ], [ 73.241138285883963, 22.609956475201734 ], [ 73.24123936450502, 22.610056546985653 ], [ 73.241380126451773, 22.610173801379634 ], [ 73.241551341569817, 22.610312099883959 ], [ 73.241746098968548, 22.610460277676015 ], [ 73.242150919199929, 22.610735217396567 ], [ 73.242182696332563, 22.610756630925966 ], [ 73.242978844575134, 22.611290065230527 ], [ 73.243254928424122, 22.611497511934459 ], [ 73.243558834571814, 22.611726689420905 ], [ 73.243860601225293, 22.611959818353981 ], [ 73.243997573543226, 22.612064529526965 ], [ 73.244032924026442, 22.612092990688424 ], [ 73.244282218200027, 22.612297657288817 ], [ 73.244509077077495, 22.612493248582918 ], [ 73.244893411506908, 22.612831998457136 ], [ 73.245024413044661, 22.612954033379381 ], [ 73.245686179635939, 22.613538369938457 ], [ 73.246142381732696, 22.613942507105428 ], [ 73.246368385007472, 22.614141018985389 ], [ 73.246530011952146, 22.61427757594765 ], [ 73.246605641169765, 22.614342077443823 ], [ 73.246714964255048, 22.614427469800461 ], [ 73.246846416550383, 22.614527928097097 ], [ 73.247132688395794, 22.6147302321654 ], [ 73.247831095299361, 22.615219088167141 ], [ 73.248464140779831, 22.615670075610204 ], [ 73.249300952757679, 22.616229174378716 ], [ 73.249387657330317, 22.616287041326153 ], [ 73.250120044608508, 22.616770963171529 ], [ 73.250196263946222, 22.616823817890605 ], [ 73.25058027043498, 22.617087058874407 ], [ 73.251007622669107, 22.617394304111869 ], [ 73.251267868936509, 22.61758901703611 ], [ 73.251344731300236, 22.617643708822808 ], [ 73.251507569864685, 22.617759708324446 ], [ 73.251688371809053, 22.617877295104176 ], [ 73.251915745285899, 22.618012583111422 ], [ 73.252262284976538, 22.618194652368512 ], [ 73.252473220473576, 22.618293273902573 ], [ 73.252674569623693, 22.618353963021111 ], [ 73.252830717651349, 22.618398216450192 ], [ 73.253132055654717, 22.618472813351918 ], [ 73.253563517186265, 22.618586607165582 ], [ 73.254098954255568, 22.618714572128937 ], [ 73.255046921806269, 22.61893683561664 ], [ 73.255570806640478, 22.619055769270773 ], [ 73.255764655246438, 22.619098674285539 ], [ 73.255944088557001, 22.619129020196709 ], [ 73.256272820945995, 22.619178329128907 ], [ 73.256846732597964, 22.619279477871967 ], [ 73.257735680472294, 22.619429937138804 ], [ 73.258547923683864, 22.619572810073677 ], [ 73.259359951607379, 22.619714082681579 ], [ 73.25946006327132, 22.619735271799637 ], [ 73.259562884687767, 22.619764992871165 ], [ 73.259666983437711, 22.619805451958594 ], [ 73.259753276005355, 22.619852232718131 ], [ 73.259850525308536, 22.619925565808188 ], [ 73.259994054473935, 22.620059150355889 ], [ 73.260459880232503, 22.620502346980988 ], [ 73.26139513974384, 22.621418998576289 ], [ 73.262214831527174, 22.62223093940279 ], [ 73.262980271935447, 22.623000208415064 ], [ 73.263197587575107, 22.623237763322635 ], [ 73.263293998689647, 22.623358247673828 ], [ 73.263398097885357, 22.623504908288098 ], [ 73.263478910457991, 22.623625019553053 ], [ 73.263533698983096, 22.623733750019348 ], [ 73.26360903350465, 22.623941099431374 ], [ 73.263661083207069, 22.624110516977957 ], [ 73.263684367918941, 22.624200283658102 ], [ 73.26370217454128, 22.624295107958126 ], [ 73.263711762081229, 22.624397516863269 ], [ 73.263721350409639, 22.624628885684814 ], [ 73.263710820432337, 22.625138877566645 ], [ 73.263734363393496, 22.626061423534619 ], [ 73.263728179755418, 22.627041206218856 ], [ 73.263718311541254, 22.627156815393302 ], [ 73.263708680969216, 22.627234844923958 ], [ 73.263689419437682, 22.627361274399163 ], [ 73.263675186909765, 22.627447395482175 ], [ 73.263648839791585, 22.627566738422971 ], [ 73.263612372419047, 22.627718829910432 ], [ 73.263522981491732, 22.628068122046287 ], [ 73.263392618415978, 22.628661982173217 ], [ 73.263375079681794, 22.628735807010109 ], [ 73.263172094110928, 22.629659491706153 ], [ 73.263114869820384, 22.629940859826011 ], [ 73.263089302040981, 22.630037506385033 ], [ 73.262976461419569, 22.630447014138355 ], [ 73.262927920654278, 22.6305828290715 ], [ 73.262868371368711, 22.630732165934656 ], [ 73.262838689923825, 22.630793303428998 ], [ 73.262756722374149, 22.630937522474834 ], [ 73.262412307708999, 22.631556050070195 ], [ 73.262045880598791, 22.632242361722444 ], [ 73.262007360528656, 22.632313207179973 ], [ 73.260904076871697, 22.634392933441802 ], [ 73.260867897856798, 22.634465971358786 ], [ 73.260571795448257, 22.634998178473726 ], [ 73.26036452359736, 22.635386546275143 ], [ 73.260074151233241, 22.635940148102115 ], [ 73.259780110621946, 22.636492666359668 ], [ 73.259451713383285, 22.637112099287467 ], [ 73.259000892661319, 22.637969875710578 ], [ 73.258875098887003, 22.638226738240469 ], [ 73.258790824597881, 22.638417632042373 ], [ 73.258774918792327, 22.638458919244869 ], [ 73.258766442422953, 22.63848010668984 ], [ 73.258663372667627, 22.638754868517125 ], [ 73.258626629331076, 22.638863829981915 ], [ 73.258587527187871, 22.638996362649436 ], [ 73.258539594748854, 22.639183851740626 ], [ 73.258532651700733, 22.63921452111062 ], [ 73.258510765080686, 22.63934278943464 ], [ 73.258503134278058, 22.639445521521424 ], [ 73.258500634127614, 22.639608165242755 ], [ 73.258505310338776, 22.639833985816587 ], [ 73.258511543874732, 22.639970629630209 ], [ 73.258526957461413, 22.640080212744675 ], [ 73.258534834626985, 22.640123228505349 ], [ 73.25858167286421, 22.640258297736732 ], [ 73.258675179651647, 22.64043233652621 ], [ 73.258851283271568, 22.640711374348253 ], [ 73.259049204251681, 22.640978905181139 ], [ 73.259254917190702, 22.641250749590544 ], [ 73.259638291938174, 22.641715330413508 ], [ 73.260143225587768, 22.642312234919082 ], [ 73.260643483800948, 22.642950847984341 ], [ 73.261037768276665, 22.643474394130433 ], [ 73.261110586092727, 22.643573389812406 ], [ 73.261246598229434, 22.64376493157852 ], [ 73.261358804973014, 22.643933213299999 ], [ 73.261584778422673, 22.644223750293289 ], [ 73.262007114405506, 22.644741537967302 ], [ 73.262434125335858, 22.64531253938955 ], [ 73.262931266152492, 22.645984219710627 ], [ 73.263208668284889, 22.646348103931555 ], [ 73.263467758046275, 22.646694726310447 ], [ 73.263799314788884, 22.647156414157859 ], [ 73.264001911755244, 22.647441191479512 ], [ 73.264240352791745, 22.647754733738665 ], [ 73.264598792851118, 22.64817902080901 ], [ 73.265086133452058, 22.648780885878395 ], [ 73.265375944481349, 22.649136152005646 ], [ 73.265558787971969, 22.649355511495731 ], [ 73.265688138062671, 22.649489269428589 ], [ 73.26574891780578, 22.649532415859269 ], [ 73.265815930593078, 22.64957268654728 ], [ 73.266038786879633, 22.6496791170992 ], [ 73.266690212576748, 22.649925056688822 ], [ 73.266856186296593, 22.649984024799689 ], [ 73.267358780954055, 22.650165243073111 ], [ 73.26772813064818, 22.650284616170595 ], [ 73.268044493090883, 22.650365158064744 ], [ 73.268480855235993, 22.650468710012984 ], [ 73.268691131358437, 22.650516507818203 ], [ 73.2689312936904, 22.650582937506634 ], [ 73.269248882890523, 22.650700788059002 ], [ 73.269361371289747, 22.65074916609522 ], [ 73.269687083953642, 22.650904495194265 ], [ 73.270296432189511, 22.651252545928244 ], [ 73.270758508120821, 22.651493449922338 ], [ 73.271269869559163, 22.651763115981094 ], [ 73.27147197995258, 22.65188446670976 ], [ 73.271618082556088, 22.651987838469065 ], [ 73.271822627279178, 22.652167615367929 ], [ 73.272024737282194, 22.652351887560382 ], [ 73.272265808154799, 22.652596833110209 ], [ 73.272745513802889, 22.653124925816513 ], [ 73.273342102398516, 22.653792342703177 ], [ 73.273997133119337, 22.654538407264393 ], [ 73.274608331045911, 22.655241771454786 ], [ 73.274944368141476, 22.655630530557605 ], [ 73.275242536609937, 22.655973537924876 ], [ 73.275363235078032, 22.656103130774945 ], [ 73.275414352686923, 22.656154466521659 ], [ 73.275531216728126, 22.65626085723493 ], [ 73.275596964148349, 22.65631591220211 ], [ 73.275713846075675, 22.656423775030085 ], [ 73.275962221770143, 22.656643995256058 ], [ 73.276371311831909, 22.657008031711484 ], [ 73.27639549934284, 22.657028608847131 ], [ 73.276633492053477, 22.65722264589516 ], [ 73.276989815046633, 22.657497906252342 ], [ 73.277442735857463, 22.657859693290348 ], [ 73.278044194365279, 22.658327094254915 ], [ 73.278706529460351, 22.658895612944733 ], [ 73.279400520338484, 22.659506824298404 ], [ 73.279853996380254, 22.659926505768642 ], [ 73.280140777671789, 22.660183198490181 ], [ 73.280357496994171, 22.660380940473978 ], [ 73.28095895574144, 22.660942709395879 ], [ 73.281321779236578, 22.6612775229977 ], [ 73.281687037161163, 22.661612335779004 ], [ 73.282366417335581, 22.662243758876759 ], [ 73.282936220503814, 22.662751591011951 ], [ 73.283566900177959, 22.663329078332605 ], [ 73.28420488451934, 22.663893083467205 ], [ 73.2847454665295, 22.664367203834193 ], [ 73.285088809436061, 22.664686279550956 ], [ 73.285130031988331, 22.664722401353977 ], [ 73.285483288641302, 22.665025577773189 ], [ 73.285921599322407, 22.665418803005725 ], [ 73.286532796956337, 22.665953587738553 ], [ 73.287178086440093, 22.666510840053441 ], [ 73.287816072184299, 22.667081571912828 ], [ 73.288268992172704, 22.667490520488574 ], [ 73.288467820043351, 22.667666500728838 ], [ 73.288530828775592, 22.667731770831899 ], [ 73.288636220396953, 22.667864186650451 ], [ 73.28867321161907, 22.667912949115628 ], [ 73.288743828168222, 22.668025295812299 ], [ 73.288841230523147, 22.66821853463156 ], [ 73.288926457078077, 22.668434241510635 ], [ 73.289001943509362, 22.668640961423772 ], [ 73.289030311766936, 22.668741301494379 ], [ 73.289076958716578, 22.668957856843484 ], [ 73.289100955035565, 22.669161497026789 ], [ 73.289111521393238, 22.669267856590448 ], [ 73.289133436820762, 22.669548723661475 ], [ 73.289218938937438, 22.671397724191852 ], [ 73.289228403506925, 22.671602402970038 ], [ 73.289311195960678, 22.672912337357609 ], [ 73.289355944355478, 22.673782290895982 ], [ 73.289475812594276, 22.676194583283102 ], [ 73.289496260801101, 22.676736465533097 ], [ 73.289534504427351, 22.678010358497549 ], [ 73.289588563387056, 22.679401428150381 ], [ 73.289591190184524, 22.679464243987066 ], [ 73.289636257229901, 22.680115717940037 ], [ 73.289812434758701, 22.682446722301592 ], [ 73.289871258803657, 22.68346775086389 ], [ 73.289934569631896, 22.684593345265405 ], [ 73.29001005658499, 22.685595362674778 ], [ 73.290107459288606, 22.687060181570445 ], [ 73.290195120519556, 22.688208211271274 ], [ 73.290285217478811, 22.689392177561171 ], [ 73.29041427547034, 22.690870436241106 ], [ 73.290538462899804, 22.692454265991593 ], [ 73.290609451082304, 22.693806342930966 ], [ 73.290696741495012, 22.694754719808696 ], [ 73.290779534204603, 22.695882466437137 ], [ 73.290797294803994, 22.696108084040191 ] ] } }
]
}
