{"type":"FeatureCollection","name":"output","crs":{"type":"name","properties":{"name":"urn:ogc:def:crs:OGC:1.3:CRS84"}},"features":[{"type":"Feature","properties":{"FeatureID":"1","OBJECTID_1":0,"Id":0,"gridcode":0,"Shape_Leng":0,"Shape_Area":0},"geometry":{"type":"Polygon","coordinates":[[[73.11094701999728,22.51400583918745],[73.11057611520614,22.514001497400432],[73.11053176452292,22.51726278380279],[73.11298024688662,22.51837248991006],[73.12322104163749,22.523013843528744],[73.13100390340998,22.52691507650763],[73.13376809361124,22.528934307647702],[73.13723803450203,22.53299237411323],[73.14008064144672,22.538305108471807],[73.14255076886043,22.543970718174972],[73.14562862603489,22.550890995771095],[73.14798112833381,22.556811459890053],[73.14980431761549,22.561790923089514],[73.15152948596811,22.567770199766052],[73.15209800735693,22.572769267151255],[73.15203919479961,22.58045410799449],[73.15249009107353,22.584335736787725],[73.15350638632557,22.587017288632566],[73.15501903104492,22.58947203347365],[73.15737153334383,22.59182453577266],[73.16048859888996,22.59480437201788],[73.16309595560449,22.596451123627265],[73.16680114672543,22.598215500351365],[73.17315290293257,22.60041116916373],[73.18142586935045,22.60339100540913],[73.18726791672609,22.606802133742438],[73.1898164608833,22.60840967698025],[73.19291392224359,22.61050732486329],[73.19587415430307,22.61311468157809],[73.19763618932816,22.61576331761596],[73.19895201147753,22.61725116478694],[73.20142213889143,22.618897916396147],[73.20512733001229,22.62044664707638],[73.20902856299135,22.621995377756527],[73.2127158199298,22.6244816790857],[73.21359958617043,22.62540892624227],[73.21481179780959,22.626680778168623],[73.21859540567375,22.62944496836989],[73.22109151668444,22.631068149484562],[73.22318645588966,22.633224452071627],[73.23019915348544,22.640442560325752],[73.23416112921835,22.64452058726882],[73.23882692544453,22.648010132345537],[73.24112061518613,22.64948044628254],[73.24635493280121,22.6531268248459],[73.24972892039204,22.654704349173866],[73.25322283046317,22.656666682227605],[73.25588256711187,22.65794945455863],[73.25915646614463,22.659968685698612],[73.26295967819446,22.663301397288688],[73.26523376375023,22.666928171666218],[73.26656684838616,22.672221301838785],[73.2666648693153,22.676475410162706],[73.26574347258165,22.68051387244267],[73.26299888656612,22.686767607720565],[73.26156778100105,22.689825860709195],[73.25927409125944,22.693511447644216],[73.25709866355089,22.6961158062076],[73.26360555230812,22.696182855343],[73.266468827457,22.691805883477606],[73.2672333907042,22.6894533811786],[73.26882132975611,22.684552334722458],[73.27001718509139,22.68057268500016],[73.27080135252424,22.676377389233643],[73.27074253996676,22.672240906024616],[73.270272039507,22.66720263026784],[73.26827241255295,22.66336020984618],[73.26597872281143,22.66053720708751],[73.26433197120222,22.658890455478215],[73.26315572005277,22.658204308974334],[73.25594137966937,22.65363653367722],[73.25105993739905,22.65077432254689],[73.24902110207324,22.649950946742287],[73.24543353606737,22.647970923973876],[73.24376718027233,22.64650061003714],[73.24227726214959,22.645657630046617],[73.23939544683343,22.643011064960422],[73.23543540129697,22.639011811052207],[73.23441598363397,22.637619913858526],[73.23165179343279,22.634091160410147],[73.22927968694805,22.631699449739568],[73.22488834932331,22.62701404932765],[73.22430022374867,22.625641756319887],[73.22333961864308,22.62344608750752],[73.22130078331745,22.62150527311086],[73.21973244845138,22.620662293120336],[73.21753677963919,22.620015354988116],[73.21287098341293,22.618897916396147],[73.2087933127613,22.617819686175928],[73.20495089233981,22.6167218517697],[73.20055955471508,22.61378122389605],[73.1986775528759,22.612114868100925],[73.19826586497365,22.611389513225472],[73.19516840361337,22.60811561419271],[73.19261985945614,22.6057042993363],[73.18930675205189,22.603763484939726],[73.18350391304783,22.600528794278535],[73.18171993213772,22.599646605916618],[73.17791672008772,22.59858797988214],[73.17354498664899,22.59713727013097],[73.16854591926379,22.59486318457537],[73.16429181093979,22.592589099019772],[73.16252743421559,22.59121680601201],[73.16013572354501,22.589177970686286],[73.15874382635143,22.587433198147927],[73.15819490914835,22.58645298885668],[73.15772440868861,22.584923862362277],[73.15723430404312,22.582963443779963],[73.15678340776893,22.580669754038446],[73.15601884452172,22.57653327082942],[73.15576399010611,22.57369066388501],[73.15529348964637,22.569534576490152],[73.15464655151423,22.565907802112623],[73.15403882175359,22.563182820283018],[73.15309782083409,22.560614671940055],[73.15264692455999,22.55910514963157],[73.1512550273664,22.554556978520107],[73.14962787994311,22.54994999485142],[73.14837321205025,22.54675451256198],[73.1470793357858,22.544088343289953],[73.14206929005658,22.533923180856203],[73.13924221213647,22.528975674048052],[73.13790604101739,22.52669904402595],[73.1375463026391,22.52627763621135],[73.136261522717,22.525347455547656],[73.1353262029336,22.524900352134964],[73.13453477850148,22.524540613756677],[73.13235579175347,22.523343198869256],[73.13163631499707,22.5230502690469],[73.13075752553027,22.522664835070078],[73.12956524976238,22.522176618699902],[73.12899994659668,22.521940219194153],[73.12872243413354,22.521801462962493],[73.12769461019576,22.521308107472432],[73.12645094323123,22.520645161032554],[73.12538714545559,22.520126109943956],[73.1247139207762,22.519750954206724],[73.12413833937109,22.519468302623785],[73.12387110514736,22.51929357255435],[73.12260688170392,22.518507287241935],[73.12194907438366,22.518198940060724],[73.12064887710244,22.517592523937363],[73.11910200207615,22.516970690455057],[73.11759624000734,22.516420804648302],[73.11534047069982,22.51572996717805],[73.11481632982706,22.515572093421316],[73.11460793646796,22.51549631401794],[73.11399538629152,22.515247925973764],[73.11315339292156,22.514896393742085],[73.1119977570217,22.514422772471438],[73.11109471913242,22.514062820305853],[73.11094701999728,22.51400583918745]]]}}]}