{"type":"FeatureCollection","name":"output","crs":{"type":"name","properties":{"name":"urn:ogc:def:crs:OGC:1.3:CRS84"}},"features":[{"type":"Feature","properties":{"FeatureID":"1","OBJECTID_1":35,"baratmlatp":"State Highway","RD_cat":"SH","RD_NAME":"SH158","Shape_Leng":12725.5521335,"Shape_Le_1":21577.5925847},"geometry":{"type":"LineString","coordinates":[[73.20442806061297,22.515075599599733],[73.20449125792088,22.515280843915363],[73.20474015194065,22.51608279743073],[73.20495203082109,22.516774760413433],[73.20521099296829,22.517638722091927],[73.20532228344588,22.51800249327183],[73.20546995554295,22.518374171895186],[73.20557054445875,22.518609435806606],[73.20576530050316,22.51897913572091],[73.20593865538576,22.51927963922698],[73.20618905767019,22.519710624477685],[73.2064844032043,22.52022464123263],[73.206852515907,22.52085332092391],[73.2075502157478,22.522019731203674],[73.20794669827853,22.52268964257376],[73.20821367313104,22.523144615907626],[73.20863314985944,22.523830613813637],[73.20903550466828,22.52447113869686],[73.20938221420512,22.525022699357798],[73.20965887629022,22.525436764859784],[73.20983379377616,22.525714617502928],[73.21034315715517,22.526479678636747],[73.21073695159858,22.527076699738192],[73.21094026931245,22.527385093378058],[73.21124203499475,22.527839775543306],[73.21169361501371,22.52850993392131],[73.21216873536036,22.52929672522222],[73.21233138969545,22.529609067205985],[73.21246836163148,22.529919432272933],[73.21271662298618,22.530504577959878],[73.21292850168459,22.531020530348368],[73.21318532335046,22.53166497589531],[73.21352989376543,22.532564427019498],[73.21375461303502,22.533133745344788],[73.21401143532685,22.5337880650803],[73.21422117354584,22.53431982071832],[73.21426694407683,22.53444211704377],[73.21433508789562,22.53470060132365],[73.21436670635825,22.534829829770473],[73.21438658741828,22.534935830628108],[73.2144116496382,22.53519553271048],[73.21446943521721,22.536029726349607],[73.21454220160972,22.53723554411585],[73.21463208909132,22.538552046950887],[73.21467917314216,22.539583892675353],[73.21475836042146,22.540338992026278],[73.21484396738946,22.54073235422933],[73.21489961206706,22.540937929626164],[73.214983080157,22.54112966786087],[73.21508366752244,22.541339196258328],[73.21520993932903,22.54156651500991],[73.21540683605376,22.54186103919943],[73.21554166807327,22.542046846676772],[73.21590121959078,22.542513341357928],[73.21639560169768,22.54313796622951],[73.2171553683573,22.54412431320874],[73.21773510006608,22.544868847647372],[73.21834283533379,22.54557860381726],[73.21878720841715,22.546026636956206],[73.21925404564418,22.546471806614928],[73.21927808979446,22.54649499949876],[73.21936583931688,22.54658927344646],[73.219503749815,22.54677231706457],[73.21965701562256,22.547023597974416]]}},{"type":"Feature","properties":{"FeatureID":"2","OBJECTID_1":64,"baratmlatp":"State Highway","RD_cat":"SH","RD_NAME":"SH150","Shape_Leng":9888.69744612,"Shape_Le_1":19081.746024},"geometry":{"type":"LineString","coordinates":[[73.35325486143576,22.541302614761868],[73.35307855524553,22.541448157039152],[73.35263329595057,22.54181208860428],[73.35204596715054,22.542331347737406],[73.35161854013917,22.542716573171976],[73.35149990896508,22.54282385135862],[73.35138101191986,22.542921820864564],[73.35043945067639,22.54360098477612],[73.34989097329813,22.543984504816766],[73.34923358285401,22.544480479898017],[73.34913898088826,22.54455824736653],[73.34900287507224,22.54468060342578],[73.34862175031817,22.545045894515464],[73.3482455350949,22.545416689005847],[73.34814170186881,22.54550681335916],[73.34807508518904,22.545560592346366],[73.34800916396817,22.54560299089021],[73.34792269310655,22.545658016296674],[73.34783854907361,22.545702976700056],[73.34772580320924,22.545755400193926],[73.34754568401841,22.545830477267227],[73.34738986609202,22.54588135523634],[73.3472545977501,22.54591960715263],[73.34712033718131,22.54595071020559],[73.34697517864755,22.545979663672817],[73.34670846641592,22.54602475181428],[73.3458454333168,22.546180970365562],[73.34493384496307,22.546357891757324],[73.34441522879617,22.54646916206698],[73.34347387945678,22.546686979226045],[73.34237352359564,22.546933201633873],[73.34120069096886,22.547195310668155],[73.34058506286829,22.54732038973716],[73.33994629396219,22.547454039324613],[73.33926989181238,22.547602789006614],[73.33825293850612,22.547856525018133],[73.33769488888598,22.54802901565109],[73.33728342147113,22.548171046552714],[73.33668054989374,22.548401613383007],[73.33611401715933,22.548618524693893],[73.33520207804978,22.548971975547904],[73.33487884531375,22.549082959991953],[73.33476048071013,22.54912156573296],[73.3346371195117,22.549154818296866],[73.3344775188545,22.54919601410852],[73.33420868750629,22.549253987245457],[73.33404051667856,22.549282968485773],[73.33388741022586,22.549308168908613],[73.3335823103219,22.549352833359535],[73.33272053521345,22.54946362597986],[73.33164748685189,22.549598844378664],[73.33127207912335,22.549644558585875],[73.33110981358001,22.549654747992705],[73.33101832431392,22.549649422832662],[73.33094115223385,22.549643198601295],[73.33084359241762,22.549620541714663],[73.33077594191414,22.54959711600976],[73.33066303088852,22.549545182070293],[73.3304493647188,22.549410611160585],[73.33039084573974,22.54936831542505],[73.33035955229029,22.549346031074553],[73.3290507443082,22.548420204074322],[73.32777016743016,22.5475352940317],[73.32764214028789,22.54745698507747],[73.32756746960341,22.547419606810298],[73.3273544625334,22.547326708081894],[73.32709340628222,22.54723239891745],[73.32689812366755,22.54718488164132],[73.3267716045253,22.547159615440563],[73.32663364046698,22.547141710616366],[73.32638574585205,22.547128494053663],[73.32564709109899,22.547157165936135],[73.32424049212366,22.54726320648629],[73.32285803400462,22.5473389473398],[73.32152357598616,22.547382891556666],[73.31988617795787,22.547414861826784],[73.31960601202582,22.54741917130142],[73.31937259612485,22.54740726023716],[73.31916510646676,22.547389292557227],[73.31896553809082,22.547348686731095],[73.31881895561465,22.547311396320872],[73.31865198344005,22.54725767438925],[73.31841305226384,22.547170831171453],[73.31786290524009,22.546959616245722],[73.31702891271084,22.546588129515985],[73.3164436464185,22.546300365249746],[73.31591674678495,22.546055536626014],[73.3157803129515,22.5459941543668],[73.31559982829985,22.5459171996591],[73.31547981894983,22.545882669106422],[73.31474570013552,22.54574499954814],[73.31411152732328,22.54562983703265],[73.3137773074701,22.545551191064746],[73.31349162396961,22.54548056733983],[73.31309005492534,22.545366297372475],[73.3124260170455,22.545171088780904],[73.31184841792746,22.545010305867848],[73.31164597759225,22.544963238102163],[73.31150324003463,22.54494563162349],[73.311383116011,22.544942104527163],[73.31119666249579,22.544949384771776],[73.3110040242932,22.5449703380684],[73.31064027066208,22.545044104420235],[73.31016837123558,22.545146803864306],[73.30998180335718,22.545185088190394],[73.30977327299478,22.54521811021919],[73.30960417169044,22.54523315623023],[73.30948038109366,22.545236738235],[73.30933668328584,22.54522892848762],[73.30924331205908,22.545215963474167],[73.30915140362002,22.545200644008183],[73.3090023706741,22.545169971473182],[73.30885208635694,22.5451267061355],[73.30875999455898,22.545092297156494],[73.30861352081367,22.545016236167815],[73.3077210999565,22.544467982565795],[73.30662406386699,22.543764148836132],[73.30617756730575,22.543495496353277],[73.30605132415548,22.54344142847035],[73.30592844201333,22.543400434174448],[73.30578202081652,22.543365346572312],[73.305553655591,22.543324335425158],[73.30435460720358,22.543156077799864],[73.30247247677427,22.542827017175505],[73.3013924159494,22.542646858686908],[73.3009799367727,22.542579768199804],[73.3006446762451,22.542552110583298],[73.30015572185538,22.542520819543036],[73.29981812220856,22.54252652180554],[73.29925014371403,22.542528977423782],[73.29860895433718,22.54251388852667],[73.29770295621876,22.54245121924415],[73.29660139974136,22.542369833229227],[73.29597622595882,22.54230364462736],[73.29524224198009,22.542204433189962],[73.29442318738813,22.542069049880624],[73.2936175262318,22.54191206846983],[73.29175056060168,22.54153458608645],[73.29046257454443,22.541321014053047],[73.29010682006518,22.54126116573975],[73.28986473358835,22.54122393703873],[73.28958568189336,22.541184778721753],[73.28940349852229,22.54116929470887],[73.28919646334121,22.541149704339457],[73.28883507653431,22.54113838881237],[73.28767122160139,22.541126453041798],[73.28722420757931,22.54111909822937],[73.28705791831977,22.541111118583],[73.28686351784647,22.54109640290925],[73.28662257224141,22.54107469063146],[73.2856666077168,22.540968927074857],[73.28443016767254,22.54082551084379],[73.28390867482025,22.540785989339845],[73.2833459478124,22.54074905693666],[73.28273549074648,22.540730710146267],[73.28212107667152,22.540721114153463],[73.28101331200791,22.540699987559403],[73.27953916982648,22.540616601547487],[73.27805075338797,22.54054746919779],[73.27730916869788,22.540530243946016],[73.27712825416761,22.5405471107912],[73.27705297854186,22.5405586328163],[73.27695284815026,22.54058512396884],[73.27682757343983,22.540634085007685],[73.2767178824348,22.540686320487602],[73.27664563386459,22.540732790636767],[73.27656990271234,22.540793281187234],[73.27652198927996,22.540838911122403],[73.27645124939667,22.5409192854937],[73.27637861925314,22.5410278589283],[73.27629530950969,22.541191127382056],[73.27624501333126,22.54131469411646]]}},{"type":"Feature","properties":{"FeatureID":"3","OBJECTID_1":66,"baratmlatp":"State Highway","RD_cat":"SH","RD_NAME":"SH63","Shape_Leng":9393.35400103,"Shape_Le_1":9665.64575277},"geometry":{"type":"LineString","coordinates":[[73.21965701562256,22.547023597974416],[73.21964126081863,22.54695098612401],[73.21963963870988,22.54687161038589],[73.2196539495139,22.546722454380706],[73.21967234803738,22.546607282500375],[73.21968767971843,22.546540257208335],[73.21971016739717,22.546470398679844],[73.21979355963614,22.546222833170507],[73.21981024138093,22.546171665643385],[73.21997760710404,22.545626437607766],[73.22002715695331,22.545490899056443],[73.22005491737363,22.545434246844717],[73.2200711513126,22.54541221330254],[73.22010349401629,22.545365094201284],[73.2201436515436,22.54532084760125],[73.22024943708959,22.545225286918566],[73.2203251998863,22.54515969518987],[73.22051664668626,22.545000764390657],[73.2207521509711,22.544806216258028],[73.22089214444404,22.5447010878517],[73.22094669614435,22.54466215597645],[73.22104494296961,22.544601104954527],[73.22108316475394,22.54457904267629],[73.2211237234784,22.54455427078675],[73.22120432693508,22.54450818823972],[73.22127079564439,22.544482022233456],[73.22134420166583,22.54446172983486],[73.22138277751746,22.544452162893663],[73.22153622349042,22.544418817309342],[73.22247410655162,22.544251279403948],[73.22297390225864,22.544169780064742],[73.22416164465987,22.543999852245467],[73.22439469594309,22.543950762385716],[73.22464001234624,22.54388656705494],[73.22520015253158,22.543727967240386],[73.22573371669,22.54356559081955],[73.22650646425008,22.54335601230535],[73.22729873604125,22.543142441257316],[73.22840971382755,22.54285188820526],[73.22883084092707,22.542757482616395],[73.22904958143702,22.542687622406984],[73.22918859448336,22.54263286700568],[73.2293984940084,22.542533161183155],[73.22965430086285,22.542399468656242],[73.23059118000542,22.54185524533297],[73.23102029319212,22.54160762018958],[73.23104966944707,22.541590444986053],[73.2314910532492,22.541341056045766],[73.23154550134474,22.5413109216133],[73.23191774327006,22.541114818477958],[73.23227549761911,22.54091656388698],[73.23247379549298,22.540799499806766],[73.23273319661061,22.54063700581764],[73.23311775127331,22.540382222059502],[73.23382099337574,22.539898856716416],[73.23434433521085,22.539526891196598],[73.23444655151164,22.539445700835984],[73.23474297511423,22.539188911438245],[73.23524046854052,22.538781135002324],[73.23551572287354,22.538573370035067],[73.23570826882464,22.538439045442637],[73.23599429860484,22.538211069140985],[73.23633493825625,22.537915024349783],[73.23654197526518,22.537705204543204],[73.23676070547053,22.537451795677217],[73.23717569992624,22.53698918999679],[73.23782170034869,22.536198037789998],[73.23919330277133,22.53453971773799],[73.24037708057848,22.533085965168],[73.24093529559063,22.53237497755837],[73.24242582782797,22.530443275935408],[73.2424729871725,22.53038179714277],[73.24322684767378,22.52943623373441],[73.24403843685299,22.52834102086752],[73.244126341779,22.52822111416034],[73.2442398961583,22.528070494786906],[73.24426944363105,22.528035115054816],[73.2442970416603,22.528002069322994],[73.24435734853519,22.527927482180477],[73.24444525410303,22.52784439542032],[73.24465786209815,22.527682000699002],[73.24488477940373,22.52752527062129],[73.24506058955292,22.527410083429128],[73.24520982431717,22.527321332491102],[73.24540487548457,22.527214869098145],[73.24603776824543,22.526887017317023],[73.2464977371511,22.5266434243348],[73.24710694091287,22.526314853868506],[73.24853542849267,22.525600461537117],[73.24906520865571,22.525339454627687],[73.24934750005947,22.525204509579307],[73.24978089371339,22.525011898125108],[73.25032263500543,22.52477774229268],[73.25082998931538,22.52454423853287],[73.25132230075567,22.524330201203902],[73.2518599536074,22.524090380001525],[73.25210935896864,22.523977077528112],[73.25240782761814,22.523818454316135],[73.25280442359049,22.52359940462195],[73.25318604658821,22.52337507621495],[73.25349948718187,22.523165077918108],[73.25394923466686,22.52287049135821],[73.25444634543145,22.52257902615452],[73.25483962594072,22.52232197506765],[73.25492159737577,22.522263465090703],[73.25525846363765,22.52197948486859],[73.25553357197442,22.521722351119635],[73.25594050784217,22.521328302850954],[73.25629178498211,22.520997274858775],[73.2567865041541,22.52051851684292],[73.25766061484185,22.51967890894845],[73.25826272111233,22.51910500854559],[73.25899253825281,22.518406287339165],[73.25966543500351,22.51775146819245],[73.26028454016603,22.51715613353972],[73.26147841602187,22.516006056841924],[73.2615044213998,22.515981073348026],[73.2617032890596,22.51579643633939],[73.26181612131161,22.515705430555244]]}},{"type":"Feature","properties":{"FeatureID":"4","OBJECTID_1":70,"baratmlatp":"State Highway","RD_cat":"SH","RD_NAME":"SH158","Shape_Leng":1148.45382393,"Shape_Le_1":1148.45382393},"geometry":{"type":"LineString","coordinates":[[73.21965701562256,22.547023597974416],[73.21970154146767,22.547146857320715],[73.2197704741728,22.547315301830658],[73.21984611402296,22.54750788238766],[73.21993197451805,22.54783828944625],[73.2200934752617,22.54845378906968],[73.22017933642961,22.548797409985667],[73.22025497540594,22.549176902995065],[73.22035105731464,22.549828267779315],[73.2204430513962,22.550455086544535],[73.22054322175784,22.551161198182534],[73.22066179158658,22.552018344063853],[73.22081102582378,22.553088826486306],[73.22093777364468,22.553995047831506],[73.22103998911187,22.55466715802672],[73.22107138934602,22.55486675146555],[73.22109232246284,22.554958581266078],[73.22111456553003,22.555055243520975],[73.22116035792618,22.55519782093275],[73.22127680182788,22.555524055792333],[73.22139847883683,22.55584424903963],[73.22149918048315,22.556103741353652],[73.22164101456748,22.55644370293092],[73.22179024938022,22.55682128754351],[73.22190124425785,22.557140915299925]]}},{"type":"Feature","properties":{"FeatureID":"5","OBJECTID_1":71,"baratmlatp":"State Highway","RD_cat":"SH","RD_NAME":"SH150","Shape_Leng":7488.70609672,"Shape_Le_1":7488.70609672},"geometry":{"type":"LineString","coordinates":[[73.22190124425785,22.557140915299925],[73.22210737225726,22.557600640563887],[73.2222670838513,22.55799591925379],[73.22235652149692,22.558296804133523],[73.22241721310766,22.558630135053413],[73.2224601498635,22.558857082087812],[73.22248838042506,22.55892912906917],[73.22250780061326,22.55895461576424],[73.22255277581614,22.55897915773691],[73.22258855110572,22.558990486070307],[73.22271836444374,22.558999925433362],[73.22347423317282,22.55895469618728],[73.22463796799244,22.558888539383783],[73.22574189386495,22.55881302355162],[73.22606693825624,22.558790369885052],[73.22613717505831,22.558791878269044],[73.22618967883562,22.55879603296055],[73.22622238799482,22.558810532623117],[73.22623939596014,22.55883469725828],[73.22624201284027,22.55889631757653],[73.22622230539191,22.559179273902682],[73.22608942575971,22.56015153037978],[73.22601583081492,22.560834938320973],[73.226007653397,22.560940658235918],[73.22601480954921,22.56109168726988],[73.22605175988498,22.561257706740587],[73.22607102705923,22.561325781837283],[73.22610169156007,22.561382416883262],[73.22614462221519,22.561416398801274],[73.22618959714478,22.561431500758715],[73.22622230560974,22.561436220915223],[73.22627808721869,22.561433379465154],[73.22653304033331,22.561406958873462],[73.22668022982998,22.56140129581547],[73.22683150901942,22.561406959101284],[73.2274800396917,22.561438919068134],[73.22792717557626,22.56146623683533],[73.22801483565024,22.561472278603222],[73.22811426978939,22.56148798581849],[73.22825557332139,22.561516983759457],[73.22837070891018,22.56154235534307],[73.22846034666291,22.561567966903308],[73.2288090071754,22.561670427395992],[73.22908507052169,22.561750170277577],[73.22919758956013,22.56178158391661],[73.22923618589617,22.561791853691155],[73.22933627516032,22.56181058099005],[73.22940692712363,22.561814809991123],[73.2294736527058,22.561809373309128],[73.22955215350748,22.56179608300476],[73.22959663742425,22.561797290938244],[73.2296285100443,22.561801544242243],[73.22973794076796,22.561835954258417],[73.23002675951807,22.561952547483315],[73.23070479674791,22.562242774049057],[73.23081995100809,22.56229047118795],[73.23098758419331,22.562367873156862],[73.23124107839323,22.562505684612006],[73.23147263854646,22.56264199273269],[73.23222905134757,22.563084042187686],[73.23292194690555,22.56347986075232],[73.23306051049659,22.5635609823975],[73.23321587784994,22.56364215950993],[73.23342439807651,22.56374221369197],[73.23375762014683,22.563900790975755],[73.23433411361314,22.564178300472093],[73.23516614642303,22.564570964944256],[73.23631300255579,22.565116540994623],[73.23642939912065,22.565173870379258],[73.23700193387752,22.565452569125323],[73.23758456095105,22.565730076168343],[73.23834095439211,22.566083092484707],[73.23877230351924,22.56628886089096],[73.2391832086681,22.56648896669399],[73.23929155704795,22.56653804921958],[73.23941830428889,22.566589018408916],[73.2396493108977,22.56666453047059],[73.23998968838065,22.56676363942147],[73.24022964945439,22.566836998242458],[73.24037095103974,22.566872186525774],[73.24048952078145,22.566883512679855],[73.24062444492542,22.566883512411746],[73.2406816852964,22.566883512316565],[73.24080127768956,22.56687218636141],[73.24091075421563,22.56684585309562],[73.24104148368536,22.566804226425894],[73.24126662495215,22.566732002120723],[73.24207999179794,22.56648141604264],[73.24285478272074,22.566234115614428],[73.24340061273051,22.566052887879017],[73.24471714702618,22.56563379797872],[73.24521482209022,22.565483248753004],[73.2461072745377,22.565226033667955],[73.24717440280659,22.56491077035039],[73.24784810290875,22.564713640725085],[73.24859212954564,22.564491677254075],[73.24880984800967,22.564423715776],[73.24907798707228,22.564334387000155],[73.24931070264817,22.56426136379597],[73.24966845648079,22.5641329921975],[73.25093797139307,22.563649710498563],[73.25210731498414,22.563213622876816],[73.2527165183176,22.562981420417824],[73.25324497141,22.56277658953359],[73.25391448185376,22.562522676136044],[73.25455843775048,22.56227159347332],[73.25547837564928,22.561903463187797],[73.25645555394591,22.561518342392684],[73.25744908708765,22.56112755683491],[73.25829543006483,22.56079340536686],[73.25898164209765,22.560522150526268],[73.25976743597616,22.560202722961222],[73.25988457710936,22.560154924863422],[73.26005148929221,22.560079791285997],[73.26018436921323,22.56000427653691],[73.2603704009475,22.559892891452908],[73.26055234380473,22.559770180380156],[73.26064861949025,22.559676208039026],[73.26072611114154,22.559592719662604],[73.26089374363873,22.55940393161773],[73.26118403491279,22.55899803674168],[73.26141913033435,22.55864500143443],[73.2615933330984,22.558401730071132],[73.26195473902645,22.55792571376541],[73.26244332806081,22.55725361929267],[73.26268251191809,22.556898691493554],[73.26337348711397,22.55589620505739],[73.26382323504383,22.55526374747088],[73.26418507755773,22.55477477037284],[73.26423269216998,22.55471209269251],[73.26436702035737,22.55452933745716],[73.2644690883235,22.55440515304078],[73.26456940708817,22.554297119685355],[73.26464300153508,22.55422160204032],[73.2647554398065,22.554117764221033],[73.26488410660615,22.554012916583865],[73.26497720789477,22.55394735915969],[73.26523278428674,22.553793980760016],[73.26537281918306,22.5537194062822],[73.26581900533137,22.55349253972507],[73.26642154859778,22.553200215809753],[73.267100258262,22.552862270216853],[73.267417125988,22.552709344563876],[73.26836568418231,22.5522279098546],[73.26946143179384,22.551661515389625],[73.27036706005714,22.551193294354626],[73.27054899126426,22.551101408913528],[73.27192159073529,22.55039759838253],[73.27251766995794,22.5500888137062],[73.2726853039285,22.55000762920345],[73.27285293695508,22.54991322848142],[73.273036924477,22.54979617184194],[73.27321068985405,22.549671562722292],[73.27335583650614,22.549541289791613],[73.27352346860832,22.5493657046502],[73.27378105171543,22.549040964616562],[73.27438821045979,22.54803842073067],[73.27477131970723,22.54740027473589],[73.27513233825076,22.54682440901525],[73.27543489635606,22.546284424334065],[73.27559639616283,22.545944572779472],[73.27596028320042,22.545068508003226],[73.27600525676064,22.54491179736163],[73.2760297894056,22.54479096110694],[73.27604614316495,22.544600265044902],[73.27604205531591,22.54430761050188],[73.27597868140845,22.543624121932442],[73.27597459344048,22.543499507331656],[73.2759731192869,22.543375638715993],[73.27597560442415,22.543329611480324],[73.27600525689617,22.54305769172114],[73.27610951687213,22.542274125885882],[73.27620751007517,22.5416276501004],[73.27624522654303,22.54132789981068],[73.27624501333126,22.54131469411646]]}},{"type":"Feature","properties":{"FeatureID":"6","OBJECTID_1":72,"baratmlatp":"State Highway","RD_cat":"SH","RD_NAME":"SH63","Shape_Leng":1263.69536412,"Shape_Le_1":1263.69536412},"geometry":{"type":"LineString","coordinates":[[73.22190124425785,22.557140915299925],[73.2219088192555,22.557251730944586],[73.22190473006538,22.557348014259105],[73.22190268585025,22.55741220285042],[73.22189246432639,22.557491495410183],[73.22186793307445,22.55756701192605],[73.22178616094189,22.557736923360995],[73.22176769736971,22.557769099258085],[73.22115651501294,22.558816799686],[73.22080710140091,22.559425528786118],[73.22045306278234,22.56006087471958],[73.22043814498294,22.560087644977887],[73.22031908462505,22.56033170943759],[73.22026020920381,22.560454949072824],[73.2202052584888,22.560566106415994],[73.22016862381147,22.560660348573904],[73.22014114763923,22.560734051227005],[73.22013002679218,22.560776339655213],[73.22011432669794,22.560879038899746],[73.22010974744087,22.560939450619628],[73.22009797183073,22.5611206840225],[73.22009797187252,22.561270504874987],[73.22010713047781,22.561547188625937],[73.22013844948805,22.562041276210795],[73.22017115884641,22.56287758862715],[73.2201899847708,22.563287867026688],[73.22021572385691,22.56373323726122],[73.22024754351573,22.56419100101273],[73.22030608273428,22.564988170635573],[73.22036127922183,22.56588676290507],[73.22040625404769,22.56645121090513],[73.22042669761869,22.566609784990842],[73.22044100757877,22.566721163700194],[73.22046145055155,22.566813665419595],[73.22051460170286,22.56698734091498],[73.22057388672765,22.56713647526925],[73.22061068444253,22.567232751438528],[73.22069041213958,22.567361119916143],[73.22079262775614,22.56747816250702],[73.22106738466454,22.56773478675633],[73.22119569580164,22.56785462947087],[73.22124372311957,22.567897947423372]]}},{"type":"Feature","properties":{"FeatureID":"7","OBJECTID_1":76,"baratmlatp":"State Highway","RD_cat":"SH","RD_NAME":"SH150","Shape_Leng":15661.425657,"Shape_Le_1":15562.1896194},"geometry":{"type":"LineString","coordinates":[[73.10915089490432,22.61852090059925],[73.11040497929356,22.617724251133932],[73.11148982541951,22.617039831497983],[73.11199244551429,22.6167271587209],[73.11211888036587,22.616642145358615],[73.1122421937841,22.616575864852635],[73.1124232623909,22.616495174015604],[73.11283378588581,22.616348203612215],[73.11360176354266,22.616077314109525],[73.11379088613769,22.615989592254095],[73.11411002309782,22.615825539295002],[73.11744184557705,22.613964675063432],[73.11806446237689,22.61361479818481],[73.11831508388546,22.613474652415206],[73.11874690064089,22.61323318373965],[73.11969511300705,22.61270526804155],[73.12086476961957,22.612084528864624],[73.12170767141721,22.611655128020693],[73.12234453081822,22.611312182725392],[73.12278939556164,22.611081631047533],[73.12334976883528,22.610777590100096],[73.1242114025619,22.61031216132793],[73.12445280534534,22.610175372369675],[73.12474680117501,22.609989386574828],[73.12542424529367,22.609583034486814],[73.12605954318794,22.609206826559305],[73.12679580276087,22.608766004866528],[73.12691867944318,22.608701448191592],[73.12710449223226,22.608608304065196],[73.12722836731992,22.608553892780098],[73.12737122425351,22.608493947792915],[73.12753405974895,22.60843861467378],[73.1278468084578,22.60834235788517],[73.12807158228082,22.608273190593827],[73.12825265040829,22.608212669180556],[73.12831040496802,22.608191775358076],[73.12841888881293,22.60814710536077],[73.12846961908237,22.60812332829912],[73.12848508033856,22.608114894452918],[73.12857733789286,22.60805856097728],[73.12869283142176,22.607977789227583],[73.12889575257708,22.607822162778046],[73.12965592543233,22.607195333203165],[73.1301132786371,22.606839407725165],[73.13014761948976,22.60681274983638],[73.13028029729557,22.60672989233812],[73.13048634015163,22.60662325877976],[73.13096398491575,22.606365320196534],[73.1317928383691,22.605945988040617],[73.13280900354847,22.6054257856045],[73.13314772518932,22.605237012756746],[73.13373931686314,22.604911343589787],[73.13442300502767,22.60451650524849],[73.13511449724007,22.604061142614835],[73.1356505509292,22.603728451252913],[73.13669259725543,22.603065391234125],[73.13699853930605,22.60287517425813],[73.13731384708015,22.60267054698958],[73.13756515700555,22.60251203304961],[73.13788514686563,22.602300200159565],[73.13863127095118,22.601826096983377],[73.1402166878472,22.600825465622396],[73.14040917001111,22.600717927013633],[73.14058555450438,22.600647314423686],[73.14074008806726,22.600596878281234],[73.14090242419735,22.60057093825488],[73.1410538341239,22.600557969396256],[73.14119275636794,22.60054932227842],[73.14133480104978,22.600547882337853],[73.14145030969638,22.600559410794343],[73.14198414789419,22.600638668929683],[73.14231194380167,22.6006919873698],[73.1430689944794,22.600808713733194],[73.14376093482798,22.60089049762779],[73.14531829446207,22.60109548406041],[73.14684800561014,22.60129723127013],[73.14698380542588,22.601314523988993],[73.1474895473806,22.601372166487188],[73.14806552969938,22.60144854170023],[73.14943446498509,22.601618585210083],[73.15069930664582,22.60177340789352],[73.1508310091919,22.601791421406414],[73.15115539061365,22.601836454107254],[73.15218950697906,22.601955790281977],[73.1531919164019,22.60208638552416],[73.15498698523298,22.602298038525287],[73.15615582967233,22.602442863504347],[73.15749168567719,22.602589304831895],[73.1587488088346,22.60273626423153],[73.15886013966947,22.602759171438343],[73.15892960177463,22.602777184154757],[73.15897733442206,22.60280049689208],[73.15902637830888,22.602839149566062],[73.15905759720788,22.602875174866586],[73.15908881627031,22.602927052460114],[73.15911379138247,22.6029947811672],[73.15917650157323,22.603202594417738],[73.15935105238773,22.603830578736854],[73.15939757148944,22.603983019396235],[73.16010773503979,22.606287975601923],[73.16052975610965,22.60759173746475],[73.1608438602522,22.608490789328577],[73.16097705279974,22.608888397501463],[73.16106026959875,22.6091536259884],[73.161085402456,22.60921328833462],[73.16112434732838,22.60928477828856],[73.16113363390392,22.609300605161227],[73.16117265714878,22.609364008206946],[73.16121168045633,22.60940867818873],[73.1612647524331,22.609456229158994],[73.1612853913778,22.609471359810414],[73.16134263189406,22.609506787093462],[73.16140679608138,22.60953692410012],[73.16228037300169,22.609805894328744],[73.16294050769451,22.60999436774804],[73.16360200282571,22.610143890693234],[73.16441794606011,22.610297836486946],[73.16503303139899,22.610405914136894],[73.1650566377948,22.610409881221624],[73.16564764666195,22.610502728356924],[73.16695248635786,22.61070311152498],[73.1683654210701,22.610924567522254],[73.16953554949893,22.611104968889958],[73.17058818530677,22.611266073064385],[73.17123128818535,22.611369820459814],[73.17211165185225,22.611506710633556],[73.17285908172829,22.611628106537495],[73.1733432246427,22.611709888063356],[73.17354302520934,22.611741584361315],[73.17408778941527,22.61182083612214],[73.17415003999648,22.611830830714513],[73.17449831361267,22.611894324361558],[73.17469186885343,22.611921701994813],[73.17483079107869,22.611943316800268],[73.17497908018417,22.6119519616678],[73.17512424674617,22.611953403267993],[73.17526785139223,22.611949079875796],[73.17536306898928,22.611937552331675],[73.17546765174652,22.61191737963238],[73.17558472096765,22.611888561126648],[73.17570959538442,22.611842450003813],[73.17580407622718,22.61180462110612],[73.17585849883407,22.611780178003027],[73.17592792746841,22.61174285800549],[73.17599695822867,22.611697499794527],[73.17609046218702,22.611624868163936],[73.17625412763074,22.611484839068165],[73.17627912356416,22.611458491811966],[73.17632500067694,22.611401690342035],[73.1763792339917,22.611326592924556],[73.17643212731677,22.611244308119268],[73.1765159700162,22.611092229496396],[73.17656966793213,22.610986528288315],[73.17680536802052,22.610482194621945],[73.1770129714323,22.610034055972818],[73.17725903646489,22.609488103120874],[73.17819849777426,22.607454170856926],[73.17900822945897,22.6056754393649],[73.17939329851895,22.604828596290943],[73.17969933119102,22.604140399358425],[73.18025941216905,22.602872202512224],[73.18060818217943,22.602113404668195],[73.18098136394228,22.601297369728197],[73.18129108995481,22.600611559361834],[73.18148971755382,22.600189056664668],[73.18179722153741,22.599546340354564],[73.18203448266125,22.599079433440828],[73.18222335503124,22.598668725985917],[73.18241847065543,22.598221990592187],[73.18258549001584,22.597791105310968],[73.18285709266905,22.597136848565093],[73.1830927920793,22.59655608651192],[73.18338936905458,22.595862914378976],[73.18349395151829,22.595609278958573],[73.18352323956844,22.595518771599416],[73.18356558892003,22.59536639378835],[73.18359541261462,22.59522594284954],[73.18361102091318,22.59510056583354],[73.18362038718814,22.594985275906016],[73.18360945976968,22.59477343057557],[73.1835563884673,22.594172481918505],[73.1835236092086,22.59371276252244],[73.18347607400429,22.59313901997705],[73.18344244064943,22.592595879842097],[73.18336595569164,22.591624546157295],[73.18330507951448,22.590821821254547],[73.18327229970035,22.590347676998466],[73.18312089006831,22.58854188330235],[73.18311404010213,22.588478777906786],[73.18305175545265,22.58779417813935],[73.18303948101287,22.58753865766152],[73.18299274284118,22.58671734291304],[73.1829349437355,22.585999787517096],[73.18292879727821,22.585907459524506],[73.18290860212839,22.585446180796062],[73.18291059074745,22.585381041434964],[73.18291597654614,22.5853434534171],[73.18292339330863,22.58531243111434],[73.18293045613288,22.585293412014742],[73.1829488524956,22.585264748129916],[73.1829763527875,22.585236569243108],[73.18305455871676,22.585169553172182],[73.18320011158949,22.58504700611289],[73.18377023594896,22.58461891836038],[73.18460986590135,22.58401384613672],[73.18545604094503,22.583411164817008],[73.1860353125482,22.58300697737443],[73.18627538070957,22.582852544320872],[73.186630770811,22.58264154415585],[73.18670214982119,22.582600960483923],[73.18688220131047,22.582507372365523],[73.1872435209464,22.582348370578906],[73.18725267013221,22.582344643011766],[73.188382783296,22.581863264671213],[73.18896165837523,22.58161576231017],[73.18930232385374,22.5814436891775],[73.18980846257844,22.581167497493638],[73.19001395512365,22.581048952380293],[73.19071032385952,22.580615401413585],[73.19125885860502,22.58028391038908],[73.191725512483,22.579986336136805],[73.19220237818404,22.579666772622993],[73.19305415781326,22.579135840987195],[73.19329317533315,22.578975948253994],[73.19365194537308,22.57872084154483],[73.19399943485445,22.578487130089417],[73.19438299766281,22.578247105320987],[73.194754498227,22.578004968077945],[73.19482630162864,22.577958846726585],[73.19503060633629,22.57784361364964],[73.19510258567418,22.57780606883143],[73.19557554692324,22.57756681330771],[73.19608284978729,22.57730593761264],[73.19658702986966,22.577066680881707],[73.19705530795218,22.57683174804152],[73.19723481553523,22.57674382801713],[73.1977811240126,22.576469543770706],[73.19876374621856,22.575971734292793],[73.20006858534497,22.575343408371786],[73.20103597453311,22.57490947763467],[73.20155390833776,22.57465427360105],[73.20174408152455,22.574554388038056],[73.2018525029887,22.57450349852992],[73.2019322872806,22.57447173440449],[73.20207713172714,22.574420766513114],[73.20230783655839,22.574352675110518],[73.20258256032501,22.574264752985524],[73.20292338759334,22.574170338840936],[73.2035815552697,22.57400098877393],[73.20372984375717,22.573959189759115],[73.20392339950921,22.573888564690655],[73.20465859691853,22.573632004796526],[73.20532667484527,22.573402831578026],[73.20580587985678,22.573215457688903],[73.20607904387941,22.573113842909244],[73.20654258338797,22.572926089504602],[73.20691853504,22.572761143427996],[73.20735810281508,22.5725588495539],[73.207424564503,22.57252793272436],[73.20798252333091,22.572266340468904],[73.20837162505065,22.57208607763279],[73.20872169780345,22.571929769965564],[73.2093077951672,22.57169407890074],[73.20982439693464,22.571517089978293],[73.21054632712885,22.571323406127732],[73.21084983921929,22.571246621369415],[73.21141586146503,22.571093778513834],[73.21229644504768,22.57083192150049],[73.2127901626802,22.57068154643771],[73.21341209549819,22.570476601677044],[73.21408768555756,22.570258142837993],[73.21429987410491,22.570181569893897],[73.21455108622638,22.570084727117564],[73.21478139762895,22.56997555584281],[73.21521585179097,22.569765176655352],[73.21545511182515,22.569642961190922],[73.21627054777484,22.56918836616865],[73.2170742318431,22.568714058369878],[73.21722252052447,22.56863910590587],[73.21732241990955,22.56859153981735],[73.21744105018999,22.568546857278218],[73.21757060792585,22.56850649699783],[73.2178734281478,22.56844740017968],[73.21818592653719,22.568386394407412],[73.21851184854108,22.568314791940953],[73.21878657198943,22.56825425301443],[73.21903632049825,22.568223983618203],[73.21935868359729,22.568189563250336],[73.21994117222319,22.56813659912238],[73.22073572799972,22.568075455593714],[73.22087430784906,22.568052093685893],[73.22099129592887,22.568026680134015],[73.2210646384022,22.568000363405254],[73.22124372311957,22.567897947423372]]}},{"type":"Feature","properties":{"FeatureID":"8","OBJECTID_1":82,"baratmlatp":"State Highway","RD_cat":"SH","RD_NAME":"SH12","Shape_Leng":8920.62239449,"Shape_Le_1":8725.32092413},"geometry":{"type":"LineString","coordinates":[[73.1091277165877,22.620215603756815],[73.11010356728191,22.621651468416903],[73.11151402829049,22.62370715681954],[73.1136074243762,22.62671804818055],[73.11392860413743,22.62721707841089],[73.11401074513896,22.627346868564626],[73.11410506341707,22.62750145849941],[73.11446725496121,22.628097563818503],[73.11573368723079,22.630131635044386],[73.11749533874642,22.632918221281216],[73.11821232965295,22.634138173310056],[73.11826722373192,22.63426913635862],[73.11834176410183,22.6345045020726],[73.1183947262939,22.634788750773435],[73.11841238155155,22.63507118988489],[73.11837678898614,22.635845834071606],[73.11822832815736,22.638051466068728],[73.11809902508655,22.63985484239625],[73.11797929844332,22.64189687216765],[73.1178978845049,22.643116771170813],[73.11784999397639,22.643930031931845],[73.11772547881672,22.64713882763448],[73.11763119499253,22.650454172511136],[73.11766112616866,22.65390009085967],[73.11769105762095,22.657691191691757],[73.11767674036311,22.658409093369393],[73.1175601076735,22.659811123659974],[73.11754139947759,22.660108049395784],[73.11750398604183,22.660556890102914],[73.11747405449049,22.661205979774238],[73.11751146918405,22.662276280133234],[73.11767609204978,22.66482425320192],[73.11769272175985,22.665061442760486],[73.11768965688805,22.66523113988782],[73.11768352694278,22.665400837108113],[73.11763448691917,22.66563558418326],[73.11756399226942,22.66588729997104],[73.11748736790564,22.6660767939044],[73.11722377883241,22.666568911891407],[73.11657524168677,22.667682662864916],[73.11640436523702,22.668010888237525],[73.1163241574933,22.66821039728821],[73.11624743804997,22.668425995182773],[73.11620559049483,22.668606196944992],[73.11617420558017,22.6687960515175],[73.1161497934671,22.668985906832592],[73.11615546096411,22.669312922451613],[73.11622084690215,22.669830796649492],[73.11637341606522,22.670610116836503],[73.1164823933238,22.671263737974026],[73.11652053462481,22.671590546764676],[73.11653688093655,22.671892216899234],[73.11651508645595,22.672264274354173],[73.11647149488722,22.67275699826807],[73.11637886377261,22.673460885546696],[73.1163625173142,22.6737927180097],[73.11636251784346,22.67481837483313],[73.1163352729444,22.676311596524155],[73.1163375639137,22.676437354088055],[73.1163184050477,22.677704076346075],[73.11630542481383,22.678413440672635],[73.11630257969031,22.67861424325631],[73.11628623378616,22.678885731022618],[73.11624809202023,22.67921252246031],[73.11616090935914,22.67967002817931],[73.1159375062449,22.68062022864506],[73.1152999895397,22.683355159780863],[73.11500575099086,22.684677358760606],[73.11486408015352,22.6854465403197],[73.11473330718235,22.686125227762712],[73.11453714826582,22.687598216640133],[73.1144063745931,22.68851819866751],[73.11439013764966,22.688592310793773],[73.11433118040563,22.688809776452878],[73.11430153840881,22.688893429185647],[73.11421435737597,22.6890896903612],[73.11413414956372,22.68921516896846],[73.11404717211303,22.689343129647323],[73.11392316972027,22.689499908557423],[73.11384121835357,22.689594821315627],[73.11359013548915,22.689861863211856],[73.11262764723969,22.69087211791916],[73.11149777106866,22.692033579030984],[73.11027373734453,22.69330763589878],[73.11021271049755,22.69337841717892],[73.1101115800476,22.693519977568695],[73.11007147547967,22.693590757584413],[73.11002265365076,22.693751622220816],[73.10990408675538,22.694192390238612],[73.10982055668796,22.694600798312788]]}},{"type":"Feature","properties":{"FeatureID":"9","OBJECTID_1":84,"baratmlatp":"State Highway","RD_cat":"SH","RD_NAME":"SH63","Shape_Leng":17592.6929408,"Shape_Le_1":17592.6929408},"geometry":{"type":"LineString","coordinates":[[73.22124372311957,22.567897947423372],[73.22149018523004,22.56812024405234],[73.2215792168827,22.568193604384913],[73.22166140030087,22.568255581365204],[73.22176138857786,22.56831502801884],[73.22192164607924,22.56838079932383],[73.22205861798324,22.56842253823753],[73.22219695985713,22.568455423902922],[73.22239830865702,22.568492104026728],[73.22279004766602,22.568580641497547],[73.22308590765503,22.56866159036064],[73.22328725560196,22.568727361369643],[73.22351873839807,22.56881337018229],[73.22367488546935,22.568887994270955],[73.22382829506107,22.568984121122142],[73.22397622380731,22.569096690240873],[73.22414195994745,22.569234555482186],[73.22431865405404,22.569397717871112],[73.22441042579435,22.569506491716215],[73.22448165031174,22.569631708534494],[73.22454054825619,22.56978475226504],[73.22457479133023,22.569893525248784],[73.22462136109128,22.57005668727639],[73.22466656237957,22.57019202094979],[73.22474052734322,22.570390596681147],[73.22486380127621,22.57067138495068],[73.22493913625071,22.570875018572668],[73.2249651615967,22.5709635546789],[73.22499392529562,22.57105588509188],[73.22501036214949,22.57115327568344],[73.22504186596996,22.57137461592052],[73.22507610897615,22.571673108998933],[73.22512130898049,22.57197792459035],[73.22528019677455,22.572705179611773],[73.22543387221891,22.573368846687874],[73.22560696008857,22.574049407122782],[73.22569036419358,22.57437825115698],[73.22637087197023,22.577236556463305],[73.22646945442571,22.577657925379206],[73.22657646424796,22.5781341792701],[73.22670273496591,22.578665763727834],[73.22672114049581,22.578744415212366],[73.2267471649576,22.57885697676025],[73.22679476217411,22.579001708630315],[73.22685468862721,22.579143991050444],[73.2269670046125,22.579331882259208],[73.22701562930881,22.57941345731261],[73.22713342570589,22.57960696108055],[73.22742380652723,22.58007490785682],[73.22787769676957,22.58080591538189],[73.22848336945513,22.581799898293426],[73.22871236918645,22.582201045789343],[73.22879763454696,22.582390593684828],[73.22888118750438,22.582658709168935],[73.22903185612269,22.58318102827908],[73.2293629854111,22.58446563379033],[73.22960268593127,22.585382524888157],[73.22968214204398,22.585703490408207],[73.22983596626631,22.58633300203058],[73.23007138679183,22.587332873272324],[73.23019979845293,22.587929630478488],[73.23028326459783,22.588287288969685],[73.23034961121188,22.588559978004046],[73.23046090089471,22.588951226254185],[73.23050584444269,22.589107330363564],[73.2305550690014,22.589251577162933],[73.23056453819223,22.589278321623805],[73.23063853633774,22.589482769233296],[73.23079209181103,22.58984040146482],[73.23079909600322,22.589857987657904],[73.23089110138407,22.590087630077416],[73.23095325305242,22.590223782157633],[73.23102590937637,22.59037591354469],[73.23121424561472,22.590727637714117],[73.2315395548349,22.5912413910961],[73.23188626387062,22.5917650209103],[73.23195261006292,22.591889505836757],[73.23200764599049,22.5919981895372],[73.23207032067914,22.592144403780402],[73.23213255664089,22.592341130885814],[73.23214094625175,22.592367687283193],[73.2323870675237,22.593079027628455],[73.23248327446917,22.59338076735306],[73.23254655408356,22.59357893901721],[73.23258901599219,22.59367884251],[73.23263969520677,22.59378506864345],[73.23272598734187,22.593926703019083],[73.23288898334131,22.594231470641322],[73.233376071643,22.595065257021577],[73.2334122162776,22.595130592037556],[73.23369437859944,22.595728738101364],[73.23391888827608,22.596220309431274],[73.23395766778656,22.596315556445287],[73.23416609012673,22.5967532665763],[73.23417925824113,22.596778332978666],[73.23430359913941,22.59705974757586],[73.2345118759313,22.597522526307866],[73.23464222350819,22.597803893863674],[73.23469438282278,22.59790426206632],[73.23504731725293,22.598629331988775],[73.23536834522753,22.599301123358313],[73.23541083107318,22.59939065455855],[73.23567867253956,22.599953151751755],[73.23572210957917,22.600048893928633],[73.23586361287893,22.60035962521144],[73.23612836785325,22.600907085797456],[73.23632834777018,22.60134840530449],[73.23640461686036,22.60154959841857],[73.23649804190674,22.601809210093556],[73.23654972841773,22.601934906882608],[73.23657541055354,22.60205543136453],[73.23659467166074,22.60221547208567],[73.23662891477491,22.602490110168738],[73.23667385787631,22.602885269765885],[73.23675304553366,22.603657806108217],[73.23682581241651,22.604205098164893],[73.23684721370564,22.604311789969106],[73.23688359725554,22.604428360855767],[73.23695208288736,22.60459234961961],[73.23705267161442,22.60480178209138],[73.23724100826536,22.60517520252412],[73.23763694212772,22.60585881705316],[73.23774181139326,22.60605145270985],[73.23811634370837,22.606720243685206],[73.23850709578743,22.607393618120167],[73.23858153413477,22.607522947076255],[73.23865686870955,22.607648129836164],[73.23873357273358,22.607741699702967],[73.2388349328621,22.60785423672828],[73.23897327401487,22.60798321291904],[73.2391554462679,22.608146328890566],[73.23940610475297,22.60834484930317],[73.23979647534534,22.60868119574323],[73.24007247366056,22.608925157423418],[73.2405005100344,22.609334128925106],[73.24113828588396,22.609956475201734],[73.24123936450502,22.610056546985653],[73.24138012645177,22.610173801379634],[73.24155134156982,22.61031209988396],[73.24174609896855,22.610460277676015],[73.24215091919993,22.610735217396567],[73.24218269633256,22.610756630925966],[73.24297884457513,22.611290065230527],[73.24325492842412,22.61149751193446],[73.24355883457181,22.611726689420905],[73.2438606012253,22.61195981835398],[73.24399757354323,22.612064529526965],[73.24403292402644,22.612092990688424],[73.24428221820003,22.612297657288817],[73.2445090770775,22.61249324858292],[73.24489341150691,22.612831998457136],[73.24502441304466,22.61295403337938],[73.24568617963594,22.613538369938457],[73.2461423817327,22.613942507105428],[73.24636838500747,22.61414101898539],[73.24653001195215,22.61427757594765],[73.24660564116977,22.614342077443823],[73.24671496425505,22.61442746980046],[73.24684641655038,22.614527928097097],[73.2471326883958,22.6147302321654],[73.24783109529936,22.61521908816714],[73.24846414077983,22.615670075610204],[73.24930095275768,22.616229174378716],[73.24938765733032,22.616287041326153],[73.25012004460851,22.61677096317153],[73.25019626394622,22.616823817890605],[73.25058027043498,22.617087058874407],[73.2510076226691,22.61739430411187],[73.25126786893651,22.61758901703611],[73.25134473130024,22.617643708822808],[73.25150756986469,22.617759708324446],[73.25168837180905,22.617877295104176],[73.2519157452859,22.618012583111422],[73.25226228497654,22.618194652368512],[73.25247322047358,22.618293273902573],[73.2526745696237,22.61835396302111],[73.25283071765135,22.618398216450192],[73.25313205565472,22.618472813351918],[73.25356351718627,22.618586607165582],[73.25409895425557,22.618714572128937],[73.25504692180627,22.61893683561664],[73.25557080664048,22.619055769270773],[73.25576465524644,22.61909867428554],[73.255944088557,22.61912902019671],[73.256272820946,22.619178329128907],[73.25684673259796,22.619279477871967],[73.2577356804723,22.619429937138804],[73.25854792368386,22.619572810073677],[73.25935995160738,22.61971408268158],[73.25946006327132,22.619735271799637],[73.25956288468777,22.619764992871165],[73.25966698343771,22.619805451958594],[73.25975327600536,22.61985223271813],[73.25985052530854,22.619925565808188],[73.25999405447394,22.62005915035589],[73.2604598802325,22.620502346980988],[73.26139513974384,22.62141899857629],[73.26221483152717,22.62223093940279],[73.26298027193545,22.623000208415064],[73.2631975875751,22.623237763322635],[73.26329399868965,22.623358247673828],[73.26339809788536,22.623504908288098],[73.26347891045799,22.623625019553053],[73.2635336989831,22.623733750019348],[73.26360903350465,22.623941099431374],[73.26366108320707,22.624110516977957],[73.26368436791894,22.6242002836581],[73.26370217454128,22.624295107958126],[73.26371176208123,22.62439751686327],[73.26372135040964,22.624628885684814],[73.26371082043234,22.625138877566645],[73.2637343633935,22.62606142353462],[73.26372817975542,22.627041206218856],[73.26371831154125,22.627156815393302],[73.26370868096922,22.627234844923958],[73.26368941943768,22.627361274399163],[73.26367518690977,22.627447395482175],[73.26364883979159,22.62756673842297],[73.26361237241905,22.62771882991043],[73.26352298149173,22.628068122046287],[73.26339261841598,22.628661982173217],[73.2633750796818,22.62873580701011],[73.26317209411093,22.629659491706153],[73.26311486982038,22.62994085982601],[73.26308930204098,22.630037506385033],[73.26297646141957,22.630447014138355],[73.26292792065428,22.6305828290715],[73.26286837136871,22.630732165934656],[73.26283868992383,22.630793303428998],[73.26275672237415,22.630937522474834],[73.262412307709,22.631556050070195],[73.26204588059879,22.632242361722444],[73.26200736052866,22.632313207179973],[73.2609040768717,22.634392933441802],[73.2608678978568,22.634465971358786],[73.26057179544826,22.634998178473726],[73.26036452359736,22.635386546275143],[73.26007415123324,22.635940148102115],[73.25978011062195,22.63649266635967],[73.25945171338329,22.637112099287467],[73.25900089266132,22.637969875710578],[73.258875098887,22.63822673824047],[73.25879082459788,22.638417632042373],[73.25877491879233,22.63845891924487],[73.25876644242295,22.63848010668984],[73.25866337266763,22.638754868517125],[73.25862662933108,22.638863829981915],[73.25858752718787,22.638996362649436],[73.25853959474885,22.639183851740626],[73.25853265170073,22.63921452111062],[73.25851076508069,22.63934278943464],[73.25850313427806,22.639445521521424],[73.25850063412761,22.639608165242755],[73.25850531033878,22.639833985816587],[73.25851154387473,22.63997062963021],[73.25852695746141,22.640080212744675],[73.25853483462699,22.64012322850535],[73.25858167286421,22.640258297736732],[73.25867517965165,22.64043233652621],[73.25885128327157,22.640711374348253],[73.25904920425168,22.64097890518114],[73.2592549171907,22.641250749590544],[73.25963829193817,22.641715330413508],[73.26014322558777,22.642312234919082],[73.26064348380095,22.64295084798434],[73.26103776827667,22.643474394130433],[73.26111058609273,22.643573389812406],[73.26124659822943,22.64376493157852],[73.26135880497301,22.6439332133],[73.26158477842267,22.64422375029329],[73.2620071144055,22.644741537967302],[73.26243412533586,22.64531253938955],[73.26293126615249,22.645984219710627],[73.26320866828489,22.646348103931555],[73.26346775804627,22.646694726310447],[73.26379931478888,22.64715641415786],[73.26400191175524,22.647441191479512],[73.26424035279175,22.647754733738665],[73.26459879285112,22.64817902080901],[73.26508613345206,22.648780885878395],[73.26537594448135,22.649136152005646],[73.26555878797197,22.64935551149573],[73.26568813806267,22.64948926942859],[73.26574891780578,22.64953241585927],[73.26581593059308,22.64957268654728],[73.26603878687963,22.6496791170992],[73.26669021257675,22.649925056688822],[73.2668561862966,22.64998402479969],[73.26735878095405,22.65016524307311],[73.26772813064818,22.650284616170595],[73.26804449309088,22.650365158064744],[73.26848085523599,22.650468710012984],[73.26869113135844,22.650516507818203],[73.2689312936904,22.650582937506634],[73.26924888289052,22.650700788059],[73.26936137128975,22.65074916609522],[73.26968708395364,22.650904495194265],[73.27029643218951,22.651252545928244],[73.27075850812082,22.651493449922338],[73.27126986955916,22.651763115981094],[73.27147197995258,22.65188446670976],[73.27161808255609,22.651987838469065],[73.27182262727918,22.65216761536793],[73.2720247372822,22.652351887560382],[73.2722658081548,22.65259683311021],[73.27274551380289,22.653124925816513],[73.27334210239852,22.653792342703177],[73.27399713311934,22.654538407264393],[73.27460833104591,22.655241771454786],[73.27494436814148,22.655630530557605],[73.27524253660994,22.655973537924876],[73.27536323507803,22.656103130774945],[73.27541435268692,22.65615446652166],[73.27553121672813,22.65626085723493],[73.27559696414835,22.65631591220211],[73.27571384607567,22.656423775030085],[73.27596222177014,22.656643995256058],[73.27637131183191,22.657008031711484],[73.27639549934284,22.65702860884713],[73.27663349205348,22.65722264589516],[73.27698981504663,22.657497906252342],[73.27744273585746,22.657859693290348],[73.27804419436528,22.658327094254915],[73.27870652946035,22.658895612944733],[73.27940052033848,22.659506824298404],[73.27985399638025,22.65992650576864],[73.28014077767179,22.66018319849018],[73.28035749699417,22.660380940473978],[73.28095895574144,22.66094270939588],[73.28132177923658,22.6612775229977],[73.28168703716116,22.661612335779004],[73.28236641733558,22.66224375887676],[73.28293622050381,22.66275159101195],[73.28356690017796,22.663329078332605],[73.28420488451934,22.663893083467205],[73.2847454665295,22.664367203834193],[73.28508880943606,22.664686279550956],[73.28513003198833,22.664722401353977],[73.2854832886413,22.66502557777319],[73.2859215993224,22.665418803005725],[73.28653279695634,22.665953587738553],[73.2871780864401,22.66651084005344],[73.2878160721843,22.667081571912828],[73.2882689921727,22.667490520488574],[73.28846782004335,22.66766650072884],[73.28853082877559,22.6677317708319],[73.28863622039695,22.66786418665045],[73.28867321161907,22.667912949115628],[73.28874382816822,22.6680252958123],[73.28884123052315,22.66821853463156],[73.28892645707808,22.668434241510635],[73.28900194350936,22.668640961423772],[73.28903031176694,22.66874130149438],[73.28907695871658,22.668957856843484],[73.28910095503556,22.66916149702679],[73.28911152139324,22.669267856590448],[73.28913343682076,22.669548723661475],[73.28921893893744,22.671397724191852],[73.28922840350693,22.671602402970038],[73.28931119596068,22.67291233735761],[73.28935594435548,22.673782290895982],[73.28947581259428,22.676194583283102],[73.2894962608011,22.676736465533097],[73.28953450442735,22.67801035849755],[73.28958856338706,22.67940142815038],[73.28959119018452,22.679464243987066],[73.2896362572299,22.680115717940037],[73.2898124347587,22.68244672230159],[73.28987125880366,22.68346775086389],[73.2899345696319,22.684593345265405],[73.29001005658499,22.68559536267478],[73.2901074592886,22.687060181570445],[73.29019512051956,22.688208211271274],[73.29028521747881,22.68939217756117],[73.29041427547034,22.690870436241106],[73.2905384628998,22.692454265991593],[73.2906094510823,22.693806342930966],[73.29069674149501,22.694754719808696],[73.2907795342046,22.695882466437137],[73.290797294804,22.69610808404019]]}}]}